{
"type": "FeatureCollection",
"name": "study_area",
"crs": { "type": "name", "properties": { "name": "urn:ogc:def:crs:OGC:1.3:CRS84" } },
"features": [
{ "type": "Feature", "properties": { "name": "Shenzhen_Futian_test", "test_only": true, "center_lon": 114.055, "center_lat": 22.545, "side_m": 5000, "construction_crs": "EPSG:32650", "min_lon": 114.0302354682249, "min_lat": 22.521998807089567, "max_lon": 114.07975666167043, "max_lat": 22.567998449216287 }, "geometry": { "type": "Polygon", "coordinates": [ [ [ 114.07975666167043, 22.52288760558271 ], [ 114.079709217508594, 22.525143154669358 ], [ 114.079661767302539, 22.527398703029537 ], [ 114.079614311051856, 22.529654250663199 ], [ 114.079566848756073, 22.531909797570272 ], [ 114.079519380414766, 22.534165343750701 ], [ 114.079471906027493, 22.536420889204411 ], [ 114.079424425593814, 22.538676433931343 ], [ 114.079376939113288, 22.540931977931436 ], [ 114.07932944658549, 22.543187521204636 ], [ 114.079281948009964, 22.545443063750866 ], [ 114.079234443386284, 22.547698605570069 ], [ 114.079186932713995, 22.549954146662184 ], [ 114.079139415992671, 22.552209687027148 ], [ 114.079091893221857, 22.554465226664892 ], [ 114.079044364401142, 22.556720765575356 ], [ 114.078996829530055, 22.558976303758481 ], [ 114.078949288608186, 22.561231841214195 ], [ 114.07890174163505, 22.563487377942447 ], [ 114.078854188610265, 22.565742913943168 ], [ 114.078806629533346, 22.567998449216287 ], [ 114.076378013635647, 22.567954258487251 ], [ 114.073949403795496, 22.567910031147605 ], [ 114.071520800017922, 22.567865767197738 ], [ 114.069092202307928, 22.567821466638009 ], [ 114.066663610670503, 22.567777129468805 ], [ 114.064235025110705, 22.567732755690489 ], [ 114.061806445633493, 22.567688345303438 ], [ 114.0593778722439, 22.567643898308038 ], [ 114.056949304946912, 22.567599414704649 ], [ 114.05452074374756, 22.567554894493661 ], [ 114.052092188650832, 22.567510337675444 ], [ 114.049663639661759, 22.56746574425037 ], [ 114.047235096785315, 22.567421114218817 ], [ 114.044806560026529, 22.567376447581164 ], [ 114.042378029390406, 22.567331744337789 ], [ 114.039949504881946, 22.567287004489074 ], [ 114.037520986506152, 22.56724222803539 ], [ 114.035092474268055, 22.567197414977116 ], [ 114.032663968172628, 22.567152565314633 ], [ 114.030235468224902, 22.567107679048316 ], [ 114.030283815263175, 22.564852242388408 ], [ 114.0303321561492, 22.562596804997799 ], [ 114.030380490883417, 22.560341366876553 ], [ 114.030428819466266, 22.558085928024735 ], [ 114.030477141898217, 22.555830488442414 ], [ 114.030525458179696, 22.553575048129641 ], [ 114.030573768311172, 22.551319607086487 ], [ 114.03062207229307, 22.549064165313013 ], [ 114.030670370125833, 22.546808722809285 ], [ 114.030718661809928, 22.544553279575368 ], [ 114.030766947345782, 22.542297835611322 ], [ 114.030815226733864, 22.540042390917204 ], [ 114.0308634999746, 22.537786945493096 ], [ 114.030911767068446, 22.53553149933904 ], [ 114.030960028015869, 22.533276052455108 ], [ 114.031008282817268, 22.53102060484137 ], [ 114.031056531473126, 22.528765156497879 ], [ 114.03110477398387, 22.526509707424708 ], [ 114.031153010349954, 22.524254257621919 ], [ 114.031201240571818, 22.521998807089567 ], [ 114.033628953593421, 22.522043594002987 ], [ 114.036056672753773, 22.522088344393534 ], [ 114.038484398047913, 22.522133058260827 ], [ 114.040912129470811, 22.522177735604494 ], [ 114.04333986701748, 22.522222376424153 ], [ 114.04576761068293, 22.522266980719429 ], [ 114.048195360462145, 22.522311548489945 ], [ 114.050623116350152, 22.522356079735321 ], [ 114.053050878341907, 22.522400574455194 ], [ 114.055478646432448, 22.52244503264917 ], [ 114.05790642061676, 22.522489454316887 ], [ 114.060334200889855, 22.52253383945796 ], [ 114.062761987246716, 22.522578188072028 ], [ 114.065189779682356, 22.522622500158707 ], [ 114.067617578191772, 22.522666775717624 ], [ 114.070045382769948, 22.522711014748406 ], [ 114.072473193411909, 22.522755217250676 ], [ 114.07490101011264, 22.522799383224065 ], [ 114.077328832867138, 22.522843512668199 ], [ 114.07975666167043, 22.52288760558271 ] ] ] } }
]
}
