{
  "type": "FeatureCollection",
  "features": [
    {
      "type": "Feature",
      "geometry": {
        "type": "LineString",
        "coordinates": [
          [
            114.02987030000001,
            22.534727899999954
          ],
          [
            114.0298557,
            22.53446649999998
          ],
          [
            114.02984,
            22.534301699999975
          ],
          [
            114.0298378,
            22.5341555
          ],
          [
            114.0298378,
            22.534081400000005
          ],
          [
            114.0298487,
            22.534003199999976
          ],
          [
            114.0298653,
            22.533959399999976
          ],
          [
            114.0298785,
            22.533970199999953
          ],
          [
            114.0299038,
            22.533979300000038
          ],
          [
            114.0299347,
            22.533981900000022
          ],
          [
            114.0299768,
            22.533978000000033
          ],
          [
            114.0300204,
            22.533946899999954
          ],
          [
            114.030047,
            22.533903999999996
          ],
          [
            114.0300878,
            22.53384699999997
          ],
          [
            114.0302001,
            22.533771699999953
          ],
          [
            114.030415,
            22.533654999999957
          ],
          [
            114.0305456,
            22.533592699999996
          ],
          [
            114.0306538,
            22.533555499999967
          ],
          [
            114.03066920000002,
            22.533461600000024
          ],
          [
            114.0307031,
            22.5333335
          ],
          [
            114.0307663,
            22.53323389999999
          ],
          [
            114.0308279,
            22.53318549999998
          ],
          [
            114.0308957,
            22.533134300000032
          ],
          [
            114.0309958,
            22.533085900000003
          ],
          [
            114.03110520000001,
            22.533050400000025
          ],
          [
            114.03113490000001,
            22.533045800000014
          ],
          [
            114.0311336,
            22.53301050000001
          ],
          [
            114.0311336,
            22.532935600000012
          ],
          [
            114.0311437,
            22.53284969999997
          ],
          [
            114.031164,
            22.532795099999962
          ],
          [
            114.0311893,
            22.532745200000026
          ],
          [
            114.0312282,
            22.532692099999956
          ],
          [
            114.031262,
            22.53265470000004
          ],
          [
            114.0312975,
            22.532621899999985
          ],
          [
            114.0313448,
            22.53258130000001
          ],
          [
            114.0313854,
            22.53255170000002
          ],
          [
            114.0314276,
            22.53252819999998
          ],
          [
            114.0314817,
            22.532517300000034
          ],
          [
            114.0315374,
            22.532503299999966
          ],
          [
            114.0316168,
            22.532490799999987
          ],
          [
            114.031654,
            22.5323612
          ],
          [
            114.031681,
            22.532244200000044
          ],
          [
            114.0317098,
            22.532178599999998
          ],
          [
            114.03173,
            22.53212560000003
          ],
          [
            114.0317571,
            22.532078799999987
          ],
          [
            114.0317926,
            22.53203350000002
          ],
          [
            114.0318314,
            22.531999200000044
          ],
          [
            114.0318821,
            22.53195859999996
          ],
          [
            114.0319261,
            22.531916400000043
          ],
          [
            114.0319683,
            22.53187590000004
          ],
          [
            114.0320308,
            22.531757299999974
          ],
          [
            114.0320578,
            22.531707299999997
          ],
          [
            114.03208490000002,
            22.531640200000044
          ],
          [
            114.0321001,
            22.53157930000003
          ],
          [
            114.0320984,
            22.531537199999995
          ],
          [
            114.0320984,
            22.53149509999999
          ],
          [
            114.0321068,
            22.531454500000002
          ],
          [
            114.0321136,
            22.531427899999986
          ],
          [
            114.0321373,
            22.531385800000006
          ],
          [
            114.032169,
            22.531339600000013
          ],
          [
            114.0322116,
            22.531301499999994
          ],
          [
            114.0322758,
            22.53122970000004
          ],
          [
            114.0323147,
            22.5311814
          ],
          [
            114.0323434,
            22.531154800000017
          ],
          [
            114.0323806,
            22.531126700000016
          ],
          [
            114.0324093,
            22.531089299999987
          ],
          [
            114.03258400000001,
            22.530712300000012
          ],
          [
            114.03271,
            22.530638000000035
          ],
          [
            114.0328146,
            22.530628099999984
          ],
          [
            114.0331901,
            22.530672600000013
          ],
          [
            114.0334208,
            22.530704899999993
          ],
          [
            114.0334852,
            22.53073459999996
          ],
          [
            114.0335978,
            22.530898100000037
          ],
          [
            114.03344760000002,
            22.53098979999997
          ],
          [
            114.03320890000002,
            22.531217699999992
          ],
          [
            114.0330399,
            22.531430799999992
          ],
          [
            114.0326967,
            22.531986200000006
          ],
          [
            114.032785,
            22.53203500000002
          ],
          [
            114.0328318,
            22.5320725
          ],
          [
            114.0328806,
            22.532104500000038
          ],
          [
            114.0329395,
            22.532147599999963
          ],
          [
            114.03301680000001,
            22.53219079999998
          ],
          [
            114.0330534,
            22.53220579999996
          ],
          [
            114.0331387,
            22.53222270000004
          ],
          [
            114.0332139,
            22.53222270000004
          ],
          [
            114.0332871,
            22.532233999999953
          ],
          [
            114.0333725,
            22.532262200000023
          ],
          [
            114.0334696,
            22.53229799999996
          ],
          [
            114.0336063,
            22.532348500000033
          ],
          [
            114.033714,
            22.53238419999999
          ],
          [
            114.0338278,
            22.532416099999985
          ],
          [
            114.0338908,
            22.532438700000014
          ],
          [
            114.0339864,
            22.532463100000037
          ],
          [
            114.03416530000001,
            22.532506299999973
          ],
          [
            114.0343015,
            22.532530699999977
          ],
          [
            114.0343929,
            22.532547600000047
          ],
          [
            114.0344844,
            22.53256819999999
          ],
          [
            114.0346287,
            22.532600099999957
          ],
          [
            114.0347426,
            22.532617000000037
          ],
          [
            114.0348198,
            22.532628299999974
          ],
          [
            114.0349153,
            22.532645200000037
          ],
          [
            114.0349926,
            22.53265269999997
          ],
          [
            114.0350658,
            22.532652699999982
          ],
          [
            114.0351613,
            22.53264329999998
          ],
          [
            114.0352363,
            22.53263580000003
          ],
          [
            114.0352697,
            22.53264300000003
          ],
          [
            114.0352973,
            22.532649
          ],
          [
            114.03537450000002,
            22.532667699999976
          ],
          [
            114.03544360000001,
            22.532695899999972
          ],
          [
            114.0355187,
            22.532731400000035
          ],
          [
            114.0355026,
            22.53274470000002
          ],
          [
            114.03547,
            22.53282360000003
          ],
          [
            114.0354558,
            22.532893
          ],
          [
            114.0354579,
            22.53293620000003
          ],
          [
            114.035466,
            22.532973800000025
          ],
          [
            114.0354782,
            22.532998200000016
          ],
          [
            114.0355127,
            22.53303199999999
          ],
          [
            114.03558390000002,
            22.533075200000024
          ],
          [
            114.0356957,
            22.533161500000013
          ],
          [
            114.0357465,
            22.533200999999977
          ],
          [
            114.0358034,
            22.533232899999994
          ],
          [
            114.0358624,
            22.533255399999955
          ],
          [
            114.035903,
            22.53329859999996
          ],
          [
            114.0359254,
            22.53333799999999
          ],
          [
            114.0359274,
            22.533399999999958
          ],
          [
            114.0359091,
            22.533441299999975
          ],
          [
            114.0358644,
            22.533508899999966
          ],
          [
            114.03582980000002,
            22.533553899999955
          ],
          [
            114.0357831,
            22.5335971
          ],
          [
            114.03572010000002,
            22.53363649999998
          ],
          [
            114.0356611,
            22.53366660000004
          ],
          [
            114.035594,
            22.533685399999953
          ],
          [
            114.0355066,
            22.5336966
          ],
          [
            114.0354457,
            22.533726699999963
          ],
          [
            114.0353847,
            22.53376979999998
          ],
          [
            114.0353237,
            22.533807399999954
          ],
          [
            114.0352607,
            22.53384499999998
          ],
          [
            114.0351956,
            22.533882500000008
          ],
          [
            114.0351184,
            22.53390500000001
          ],
          [
            114.0350493,
            22.533906900000016
          ],
          [
            114.0349924,
            22.533906899999998
          ],
          [
            114.0349293,
            22.533906899999952
          ],
          [
            114.03488060000001,
            22.533912500000028
          ],
          [
            114.0348297,
            22.533933200000018
          ],
          [
            114.0347749,
            22.53397259999998
          ],
          [
            114.0347294,
            22.533980099999987
          ],
          [
            114.0346556,
            22.533977100000012
          ],
          [
            114.0345187,
            22.533975600000005
          ],
          [
            114.0343903,
            22.53397399999997
          ],
          [
            114.0343481,
            22.53396780000001
          ],
          [
            114.0343143,
            22.533975599999962
          ],
          [
            114.0342822,
            22.533999000000012
          ],
          [
            114.0342568,
            22.534024000000016
          ],
          [
            114.0342078,
            22.534044300000023
          ],
          [
            114.0341419,
            22.534045799999998
          ],
          [
            114.0340575,
            22.534048900000027
          ],
          [
            114.0339595,
            22.534050499999967
          ],
          [
            114.0338699,
            22.534056700000008
          ],
          [
            114.0338074,
            22.5340645
          ],
          [
            114.0337145,
            22.534083300000034
          ],
          [
            114.0335962,
            22.53410670000002
          ],
          [
            114.0335185,
            22.534112899999982
          ],
          [
            114.0333292,
            22.53409729999997
          ],
          [
            114.0332312,
            22.534077
          ],
          [
            114.0331535,
            22.534069199999976
          ],
          [
            114.0330943,
            22.534083299999985
          ],
          [
            114.0329997,
            22.5341348
          ],
          [
            114.032851,
            22.534228399999996
          ],
          [
            114.0327767,
            22.53428150000002
          ],
          [
            114.0327091,
            22.53431429999996
          ],
          [
            114.0325266,
            22.534358
          ],
          [
            114.03244,
            22.5343697
          ],
          [
            114.03245140000001,
            22.534387500000012
          ],
          [
            114.0324717,
            22.53450919999997
          ],
          [
            114.0324886,
            22.53460600000004
          ],
          [
            114.0324784,
            22.534716799999963
          ],
          [
            114.03245140000001,
            22.534794799999997
          ],
          [
            114.0324125,
            22.5348806
          ],
          [
            114.0323842,
            22.534945899999993
          ],
          [
            114.0324406,
            22.534920699999965
          ],
          [
            114.0325186,
            22.534925699999974
          ],
          [
            114.0326304,
            22.53495949999997
          ],
          [
            114.0326772,
            22.534980199999982
          ],
          [
            114.0327239,
            22.53501590000002
          ],
          [
            114.0327686,
            22.53509660000001
          ],
          [
            114.032793,
            22.535149199999992
          ],
          [
            114.0328377,
            22.535216799999983
          ],
          [
            114.03286210000002,
            22.535239300000022
          ],
          [
            114.0328967,
            22.53525810000001
          ],
          [
            114.0329374,
            22.535275000000016
          ],
          [
            114.0330431,
            22.53529940000001
          ],
          [
            114.0331284,
            22.53531630000001
          ],
          [
            114.0333175,
            22.535305000000005
          ],
          [
            114.0334272,
            22.535288100000006
          ],
          [
            114.0335655,
            22.535271199999976
          ],
          [
            114.03373210000001,
            22.535237399999993
          ],
          [
            114.033785,
            22.535220500000033
          ],
          [
            114.0338541,
            22.5351923
          ],
          [
            114.0339232,
            22.535181100000013
          ],
          [
            114.0340188,
            22.53517359999999
          ],
          [
            114.0341346,
            22.535154799999987
          ],
          [
            114.0342912,
            22.53510599999996
          ],
          [
            114.0343806,
            22.535075900000006
          ],
          [
            114.0344416,
            22.535038399999976
          ],
          [
            114.0344883,
            22.534978299999985
          ],
          [
            114.0345148,
            22.534925699999956
          ],
          [
            114.0345473,
            22.5348525
          ],
          [
            114.0345839,
            22.534790599999994
          ],
          [
            114.0346062,
            22.534753000000023
          ],
          [
            114.0346652,
            22.53469860000002
          ],
          [
            114.0347384,
            22.534638499999954
          ],
          [
            114.0348237,
            22.534587800000025
          ],
          [
            114.03491320000002,
            22.53455399999997
          ],
          [
            114.0349772,
            22.53453429999996
          ],
          [
            114.0349985,
            22.534527699999995
          ],
          [
            114.0350758,
            22.534507000000012
          ],
          [
            114.0351429,
            22.534501400000032
          ],
          [
            114.0351957,
            22.53450140000004
          ],
          [
            114.0352526,
            22.53450889999996
          ],
          [
            114.0352953,
            22.534531499999986
          ],
          [
            114.0353258,
            22.534557699999997
          ],
          [
            114.03534,
            22.534585900000042
          ],
          [
            114.03534,
            22.534625300000027
          ],
          [
            114.03534,
            22.534681699999986
          ],
          [
            114.03534,
            22.534749199999975
          ],
          [
            114.0353421,
            22.534816800000026
          ],
          [
            114.0353461,
            22.534891900000037
          ],
          [
            114.0353746,
            22.53499139999998
          ],
          [
            114.0354064,
            22.535132400000006
          ],
          [
            114.03533430000002,
            22.535178600000005
          ],
          [
            114.0352519,
            22.53523159999997
          ],
          [
            114.0351666,
            22.535285899999998
          ],
          [
            114.0351063,
            22.535322599999954
          ],
          [
            114.035046,
            22.535337599999977
          ],
          [
            114.0349828,
            22.535342999999987
          ],
          [
            114.034893,
            22.53533760000002
          ],
          [
            114.0348136,
            22.53533760000003
          ],
          [
            114.03476650000002,
            22.535348400000014
          ],
          [
            114.0347092,
            22.53537560000001
          ],
          [
            114.03466360000002,
            22.535413599999973
          ],
          [
            114.0346033,
            22.53547480000004
          ],
          [
            114.0345606,
            22.53552639999996
          ],
          [
            114.03451650000001,
            22.5355998
          ],
          [
            114.0344709,
            22.535685400000002
          ],
          [
            114.0344267,
            22.535762799999983
          ],
          [
            114.0343559,
            22.535825500000048
          ],
          [
            114.0342833,
            22.535871199999974
          ],
          [
            114.0342002,
            22.535918599999995
          ],
          [
            114.0339878,
            22.53606569999996
          ],
          [
            114.0338515,
            22.53611970000001
          ],
          [
            114.0337294,
            22.536162199999957
          ],
          [
            114.0336463,
            22.536193200000028
          ],
          [
            114.0335401,
            22.536234100000012
          ],
          [
            114.0334534,
            22.536271700000015
          ],
          [
            114.03340380000002,
            22.536305999999954
          ],
          [
            114.0333331,
            22.53639260000003
          ],
          [
            114.0332906,
            22.53646939999997
          ],
          [
            114.0332711,
            22.53654950000004
          ],
          [
            114.0332605,
            22.536631200000027
          ],
          [
            114.0332517,
            22.536737499999987
          ],
          [
            114.0332357,
            22.536781600000023
          ],
          [
            114.0331844,
            22.536866600000003
          ],
          [
            114.0331523,
            22.536913800000015
          ],
          [
            114.0331455,
            22.536923800000018
          ],
          [
            114.0330959,
            22.537002299999962
          ],
          [
            114.0330464,
            22.53704640000002
          ],
          [
            114.0330021,
            22.537083999999975
          ],
          [
            114.0329667,
            22.537113400000017
          ],
          [
            114.0329172,
            22.53717549999995
          ],
          [
            114.03288180000001,
            22.53723759999998
          ],
          [
            114.032857,
            22.53727689999996
          ],
          [
            114.0328287,
            22.53733240000003
          ],
          [
            114.0327898,
            22.537389599999972
          ],
          [
            114.0327632,
            22.5374223
          ],
          [
            114.0327314,
            22.537459899999988
          ],
          [
            114.0327013,
            22.53748280000003
          ],
          [
            114.032673,
            22.537508900000034
          ],
          [
            114.03265,
            22.53754489999999
          ],
          [
            114.0326358,
            22.537572700000034
          ],
          [
            114.0326199,
            22.537607000000037
          ],
          [
            114.0325731,
            22.537706599999954
          ],
          [
            114.0325294,
            22.537777999999957
          ],
          [
            114.0324887,
            22.537863399999964
          ],
          [
            114.0324796,
            22.537879400000048
          ],
          [
            114.0324633,
            22.53789060000004
          ],
          [
            114.032442,
            22.53790000000004
          ],
          [
            114.0324094,
            22.53790750000003
          ],
          [
            114.03238,
            22.537923500000023
          ],
          [
            114.0323383,
            22.537948800000013
          ],
          [
            114.0322844,
            22.537988299999995
          ],
          [
            114.0322519,
            22.538021100000037
          ],
          [
            114.0322092,
            22.538060500000043
          ],
          [
            114.0321879,
            22.538094300000026
          ],
          [
            114.0321696,
            22.538149700000005
          ],
          [
            114.0321543,
            22.538192899999995
          ],
          [
            114.03214520000002,
            22.53822670000004
          ],
          [
            114.0321462,
            22.538256699999984
          ],
          [
            114.0321503,
            22.53833220000002
          ],
          [
            114.0321717,
            22.538331000000003
          ],
          [
            114.032221,
            22.538341600000006
          ],
          [
            114.03225490000001,
            22.538357999999963
          ],
          [
            114.0322903,
            22.53838499999997
          ],
          [
            114.0323234,
            22.538418500000006
          ],
          [
            114.0323147,
            22.53842619999999
          ],
          [
            114.0322958,
            22.538449899999964
          ],
          [
            114.0322534,
            22.538508600000014
          ],
          [
            114.0322045,
            22.538554099999992
          ],
          [
            114.0322025,
            22.5385657
          ],
          [
            114.032201,
            22.53858420000003
          ],
          [
            114.0322048,
            22.53862049999998
          ],
          [
            114.0322249,
            22.53867099999997
          ],
          [
            114.0322749,
            22.538741399999957
          ],
          [
            114.0323073,
            22.53878199999998
          ],
          [
            114.0323844,
            22.538844299999997
          ],
          [
            114.0322605,
            22.538925900000006
          ],
          [
            114.03220790000002,
            22.538951899999986
          ],
          [
            114.0321834,
            22.53896200000004
          ],
          [
            114.0321663,
            22.538975600000036
          ],
          [
            114.0321553,
            22.538986900000015
          ],
          [
            114.032148,
            22.539005000000035
          ],
          [
            114.0321317,
            22.539033599999964
          ],
          [
            114.0321155,
            22.53905420000004
          ],
          [
            114.0320982,
            22.539065499999953
          ],
          [
            114.0320819,
            22.539075799999985
          ],
          [
            114.0320555,
            22.539090899999984
          ],
          [
            114.032026,
            22.539102100000022
          ],
          [
            114.0320098,
            22.539114300000005
          ],
          [
            114.0319986,
            22.53912369999995
          ],
          [
            114.03199250000002,
            22.539141499999985
          ],
          [
            114.0319844,
            22.53917530000004
          ],
          [
            114.0319798,
            22.53920669999997
          ],
          [
            114.0318162,
            22.539209899999953
          ],
          [
            114.0317677,
            22.539216399999997
          ],
          [
            114.0317305,
            22.539222900000016
          ],
          [
            114.0316933,
            22.539230000000032
          ],
          [
            114.031653,
            22.53923150000003
          ],
          [
            114.0316949,
            22.539252799999996
          ],
          [
            114.0317271,
            22.53928530000003
          ],
          [
            114.0317463,
            22.53932569999997
          ],
          [
            114.0317508,
            22.539366200000035
          ],
          [
            114.031742,
            22.53940619999999
          ],
          [
            114.0317207,
            22.539441899999986
          ],
          [
            114.0316889,
            22.539470099999978
          ],
          [
            114.0316494,
            22.539488400000028
          ],
          [
            114.03160590000002,
            22.539494999999995
          ],
          [
            114.0315782,
            22.539490900000022
          ],
          [
            114.0314858,
            22.54001820000001
          ],
          [
            114.0314048,
            22.540480100000018
          ],
          [
            114.0313923,
            22.54055149999995
          ],
          [
            114.0314698,
            22.540564699999962
          ],
          [
            114.0315374,
            22.54057599999996
          ],
          [
            114.0316463,
            22.540594200000037
          ],
          [
            114.0319826,
            22.54076730000002
          ],
          [
            114.0355349,
            22.541367900000022
          ],
          [
            114.03559990000001,
            22.541378599999984
          ],
          [
            114.0356427,
            22.54140529999998
          ],
          [
            114.0356653,
            22.54142959999997
          ],
          [
            114.0356805,
            22.541462200000012
          ],
          [
            114.0356873,
            22.541506299999952
          ],
          [
            114.0356856,
            22.541539900000004
          ],
          [
            114.0356654,
            22.54167429999999
          ],
          [
            114.0356509,
            22.541780800000012
          ],
          [
            114.0356408,
            22.54185520000004
          ],
          [
            114.0356229,
            22.5419686
          ],
          [
            114.0353092,
            22.543599199999953
          ],
          [
            114.035303,
            22.543635099999964
          ],
          [
            114.0353,
            22.54365840000002
          ],
          [
            114.0352989,
            22.543680800000043
          ],
          [
            114.0352985,
            22.5437033
          ],
          [
            114.0352993,
            22.543726499999963
          ],
          [
            114.0353013,
            22.543771500000002
          ],
          [
            114.0354495,
            22.543795600000013
          ],
          [
            114.03556500000002,
            22.543814300000008
          ],
          [
            114.0383375,
            22.544265400000036
          ],
          [
            114.0386166,
            22.544310800000044
          ],
          [
            114.0387889,
            22.544334899999964
          ],
          [
            114.0389342,
            22.544352600000035
          ],
          [
            114.03910690000001,
            22.54437009999999
          ],
          [
            114.0391697,
            22.544376
          ],
          [
            114.0391695,
            22.544419000000012
          ],
          [
            114.0391616,
            22.546331200000026
          ],
          [
            114.0391612,
            22.546426300000007
          ],
          [
            114.0395917,
            22.54644959999998
          ],
          [
            114.0397897,
            22.54646059999997
          ],
          [
            114.0398702,
            22.54646370000004
          ],
          [
            114.039868,
            22.548268200000038
          ],
          [
            114.03986440000001,
            22.54930519999999
          ],
          [
            114.0398638,
            22.54948020000001
          ],
          [
            114.03986320000001,
            22.549622100000008
          ],
          [
            114.0398627,
            22.549796600000004
          ],
          [
            114.0398553,
            22.551918200000042
          ],
          [
            114.03985520000002,
            22.551965700000043
          ],
          [
            114.0398508,
            22.553215299999973
          ],
          [
            114.0398506,
            22.55327460000001
          ],
          [
            114.0398504,
            22.55335219999998
          ],
          [
            114.0399352,
            22.553353600000023
          ],
          [
            114.0409791,
            22.55337060000001
          ],
          [
            114.0411087,
            22.553372800000012
          ],
          [
            114.0411693,
            22.553373699999963
          ],
          [
            114.0411677,
            22.553480899999983
          ],
          [
            114.0411559,
            22.554155700000003
          ],
          [
            114.0411457,
            22.554623400000047
          ],
          [
            114.0411444,
            22.554747299999963
          ],
          [
            114.04113710000001,
            22.554871100000014
          ],
          [
            114.0411239,
            22.554994500000028
          ],
          [
            114.0411048,
            22.555117299999953
          ],
          [
            114.0410904,
            22.555199699999964
          ],
          [
            114.04107240000002,
            22.555281599999972
          ],
          [
            114.0410509,
            22.555362799999962
          ],
          [
            114.041026,
            22.555443099999973
          ],
          [
            114.0409977,
            22.55552240000002
          ],
          [
            114.040966,
            22.555600600000023
          ],
          [
            114.0409309,
            22.55567769999998
          ],
          [
            114.0408927,
            22.555753399999993
          ],
          [
            114.0407642,
            22.55601570000001
          ],
          [
            114.0407585,
            22.55604229999998
          ],
          [
            114.0407545,
            22.55606489999998
          ],
          [
            114.0407545,
            22.556087499999986
          ],
          [
            114.0407578,
            22.556106999999997
          ],
          [
            114.0407648,
            22.55612679999996
          ],
          [
            114.0407741,
            22.55614429999999
          ],
          [
            114.04078830000002,
            22.556164600000017
          ],
          [
            114.0408129,
            22.556193099999973
          ],
          [
            114.0408373,
            22.556219500000015
          ],
          [
            114.0408679,
            22.556247399999958
          ],
          [
            114.04094540000001,
            22.556304500000007
          ],
          [
            114.041916,
            22.556403600000024
          ],
          [
            114.0421109,
            22.556424699999997
          ],
          [
            114.04229360000001,
            22.556446600000026
          ],
          [
            114.0425193,
            22.556478199999955
          ],
          [
            114.0431181,
            22.556562199999988
          ],
          [
            114.0431997,
            22.556575800000026
          ],
          [
            114.0432786,
            22.556592499999972
          ],
          [
            114.0433652,
            22.55661599999998
          ],
          [
            114.0435122,
            22.556660399999974
          ],
          [
            114.0435684,
            22.556678300000044
          ],
          [
            114.04369890000001,
            22.556720000000023
          ],
          [
            114.0438439,
            22.55677169999996
          ],
          [
            114.0439627,
            22.556803699999982
          ],
          [
            114.0440579,
            22.55685409999998
          ],
          [
            114.0441521,
            22.5569109
          ],
          [
            114.0442426,
            22.55697270000003
          ],
          [
            114.044329,
            22.557039299999953
          ],
          [
            114.0444096,
            22.557109100000023
          ],
          [
            114.0452228,
            22.55783739999999
          ],
          [
            114.0458731,
            22.55837600000005
          ],
          [
            114.0459152,
            22.558410900000002
          ],
          [
            114.0476803,
            22.559872800000026
          ],
          [
            114.0477036,
            22.55989199999999
          ],
          [
            114.0477269,
            22.55991130000004
          ],
          [
            114.0496058,
            22.561467400000026
          ],
          [
            114.04987460000001,
            22.561690000000013
          ],
          [
            114.0499171,
            22.561723399999973
          ],
          [
            114.0500305,
            22.56181260000001
          ],
          [
            114.05017040000001,
            22.561910800000014
          ],
          [
            114.0502168,
            22.56194010000004
          ],
          [
            114.0503155,
            22.562002199999995
          ],
          [
            114.0504655,
            22.56208659999998
          ],
          [
            114.05062010000002,
            22.56216380000001
          ],
          [
            114.0507787,
            22.562233600000027
          ],
          [
            114.0509409,
            22.562295699999975
          ],
          [
            114.0511064,
            22.562350200000022
          ],
          [
            114.0512747,
            22.562396600000007
          ],
          [
            114.0514454,
            22.56243510000002
          ],
          [
            114.051618,
            22.5624654
          ],
          [
            114.05179230000002,
            22.562487600000036
          ],
          [
            114.0519676,
            22.562501400000013
          ],
          [
            114.0521434,
            22.562506900000038
          ],
          [
            114.0523193,
            22.562504099999956
          ],
          [
            114.0524949,
            22.562492899999974
          ],
          [
            114.05266950000001,
            22.56247340000003
          ],
          [
            114.0540265,
            22.562297700000027
          ],
          [
            114.0542351,
            22.562277399999992
          ],
          [
            114.05430910000001,
            22.56227159999998
          ],
          [
            114.0543052,
            22.562452200000024
          ],
          [
            114.0542968,
            22.56284219999995
          ],
          [
            114.0542941,
            22.56297050000001
          ],
          [
            114.0542908,
            22.56312460000001
          ],
          [
            114.05428540000001,
            22.56393559999999
          ],
          [
            114.0542833,
            22.564183300000046
          ],
          [
            114.0542823,
            22.564254200000004
          ],
          [
            114.0542849,
            22.564358299999967
          ],
          [
            114.0542928,
            22.564415299999954
          ],
          [
            114.0543155,
            22.5644611
          ],
          [
            114.0543368,
            22.564489
          ],
          [
            114.0543627,
            22.564518299999996
          ],
          [
            114.0544073,
            22.564552099999965
          ],
          [
            114.0544757,
            22.564588599999958
          ],
          [
            114.05487,
            22.564692700000016
          ],
          [
            114.0550507,
            22.56474260000002
          ],
          [
            114.0559882,
            22.56502160000002
          ],
          [
            114.0563494,
            22.56512380000003
          ],
          [
            114.0565227,
            22.565172799999992
          ],
          [
            114.0568453,
            22.565267300000027
          ],
          [
            114.0570264,
            22.56532790000002
          ],
          [
            114.0572331,
            22.565400300000015
          ],
          [
            114.0574663,
            22.565489999999976
          ],
          [
            114.0576507,
            22.565572999999983
          ],
          [
            114.0581226,
            22.565803499999955
          ],
          [
            114.0585349,
            22.566010500000036
          ],
          [
            114.0586035,
            22.56607729999998
          ],
          [
            114.0586663,
            22.566144100000027
          ],
          [
            114.05874880000002,
            22.56628349999996
          ],
          [
            114.05883800000001,
            22.566422799999966
          ],
          [
            114.0589252,
            22.56652069999996
          ],
          [
            114.0589949,
            22.566600000000005
          ],
          [
            114.0590487,
            22.56665560000004
          ],
          [
            114.05913660000002,
            22.566731600000026
          ],
          [
            114.05929130000001,
            22.566812599999977
          ],
          [
            114.0612146,
            22.56774650000004
          ],
          [
            114.0615985,
            22.56793450000001
          ],
          [
            114.06192830000002,
            22.568083899999998
          ],
          [
            114.0621775,
            22.56817390000001
          ],
          [
            114.0624656,
            22.56826009999998
          ],
          [
            114.0628263,
            22.56833749999999
          ],
          [
            114.0631096,
            22.568391700000014
          ],
          [
            114.0635758,
            22.56844290000004
          ],
          [
            114.0650622,
            22.56860480000003
          ],
          [
            114.0665094,
            22.568777700000023
          ],
          [
            114.0678161,
            22.56893890000002
          ],
          [
            114.0689379,
            22.569110799999994
          ],
          [
            114.0697318,
            22.569236099999994
          ],
          [
            114.0703558,
            22.569255000000034
          ],
          [
            114.07061,
            22.569246000000042
          ],
          [
            114.0708328,
            22.569258400000002
          ],
          [
            114.071081,
            22.56928219999998
          ],
          [
            114.07135460000002,
            22.56931499999996
          ],
          [
            114.0716138,
            22.569359900000034
          ],
          [
            114.0718395,
            22.569416599999965
          ],
          [
            114.0721265,
            22.569497100000007
          ],
          [
            114.0724812,
            22.569620299999986
          ],
          [
            114.0726186,
            22.569689600000025
          ],
          [
            114.0727333,
            22.569765200000013
          ],
          [
            114.0734454,
            22.57016640000001
          ],
          [
            114.073677,
            22.570294700000026
          ],
          [
            114.0738121,
            22.57037329999998
          ],
          [
            114.0742393,
            22.570666700000036
          ],
          [
            114.074749,
            22.571008500000044
          ],
          [
            114.075199,
            22.57131139999998
          ],
          [
            114.07542220000002,
            22.57145929999998
          ],
          [
            114.0756201,
            22.5715819
          ],
          [
            114.075841,
            22.57171050000003
          ],
          [
            114.0760979,
            22.571837700000003
          ],
          [
            114.0765888,
            22.572032899999947
          ],
          [
            114.0769497,
            22.57213730000001
          ],
          [
            114.0774116,
            22.572236899999965
          ],
          [
            114.0776701,
            22.572285299999997
          ],
          [
            114.07803260000001,
            22.57233899999996
          ],
          [
            114.0783032,
            22.572367000000025
          ],
          [
            114.0785947,
            22.57238399999996
          ],
          [
            114.0788621,
            22.572387400000025
          ],
          [
            114.079084,
            22.572388699999976
          ],
          [
            114.0793691,
            22.572378800000003
          ],
          [
            114.079706,
            22.572343000000018
          ],
          [
            114.0799,
            22.572314999999968
          ]
        ]
      },
      "properties": {
        "route_id": "V1-effd7333c70b",
        "mode": "trusted",
        "distance_m": 10361.510411375662,
        "travel_time_s": 1295.19,
        "mean_risk": 0.2896,
        "max_risk": 0.37647919583513495,
        "confidence": 0.8449332089648887,
        "p95_risk": 0.3694798271752362,
        "high_risk_length_ratio": 0.0,
        "freshness": 0.9999999999907696,
        "uncertainty": 0.15506679102731183,
        "triggered": false,
        "trigger_reason": "",
        "edge_ids": [
          [
            9706921350,
            9706921684,
            0
          ],
          [
            9706921684,
            9706921682,
            0
          ],
          [
            9706921682,
            9713848047,
            0
          ],
          [
            9713848047,
            9713848018,
            0
          ],
          [
            9713848018,
            9713848023,
            0
          ],
          [
            9713848023,
            12984979400,
            0
          ],
          [
            12984979400,
            9713848118,
            0
          ],
          [
            9713848118,
            9713848006,
            0
          ],
          [
            9713848006,
            9713847968,
            0
          ],
          [
            9713847968,
            9706921713,
            0
          ],
          [
            9706921713,
            9706921712,
            0
          ],
          [
            9706921712,
            9706921786,
            0
          ],
          [
            9706921786,
            9778914467,
            0
          ],
          [
            9778914467,
            9706887247,
            0
          ],
          [
            9706887247,
            9706857800,
            0
          ],
          [
            9706857800,
            9706857774,
            0
          ],
          [
            9706857774,
            9706857801,
            0
          ],
          [
            9706857801,
            9706857775,
            0
          ],
          [
            9706857775,
            9706857832,
            0
          ],
          [
            9706857832,
            9706857843,
            0
          ],
          [
            9706857843,
            7161807983,
            0
          ],
          [
            7161807983,
            7161812592,
            0
          ],
          [
            7161812592,
            499478563,
            0
          ],
          [
            499478563,
            499478564,
            0
          ],
          [
            499478564,
            7973114513,
            0
          ],
          [
            7973114513,
            7973099569,
            0
          ],
          [
            7973099569,
            7975273881,
            0
          ],
          [
            7975273881,
            7973099508,
            0
          ],
          [
            7973099508,
            7973099507,
            0
          ],
          [
            7973099507,
            7973114859,
            0
          ],
          [
            7973114859,
            8298792534,
            0
          ],
          [
            8298792534,
            8298792550,
            0
          ],
          [
            8298792550,
            7973114851,
            0
          ],
          [
            7973114851,
            7975286501,
            0
          ],
          [
            7975286501,
            8298792599,
            0
          ],
          [
            8298792599,
            1116501292,
            0
          ],
          [
            1116501292,
            7975286500,
            0
          ],
          [
            7975286500,
            1116501304,
            0
          ],
          [
            1116501304,
            7975286429,
            0
          ],
          [
            7975286429,
            7975286583,
            0
          ],
          [
            7975286583,
            7977056082,
            0
          ],
          [
            7977056082,
            7977056084,
            0
          ],
          [
            7977056084,
            7977050965,
            0
          ],
          [
            7977050965,
            7977056079,
            0
          ],
          [
            7977056079,
            7977056078,
            0
          ],
          [
            7977056078,
            7979256736,
            0
          ],
          [
            7979256736,
            7977056077,
            0
          ],
          [
            7977056077,
            7979256760,
            0
          ],
          [
            7979256760,
            8407048466,
            0
          ],
          [
            8407048466,
            2530277169,
            0
          ],
          [
            2530277169,
            13161326472,
            0
          ],
          [
            13161326472,
            7979256723,
            0
          ],
          [
            7979256723,
            7979924894,
            0
          ],
          [
            7979924894,
            7979918290,
            0
          ],
          [
            7979918290,
            7967831812,
            0
          ],
          [
            7967831812,
            279077946,
            0
          ],
          [
            279077946,
            564083084,
            0
          ],
          [
            564083084,
            5374860944,
            0
          ],
          [
            5374860944,
            5374860978,
            0
          ],
          [
            5374860978,
            5374861143,
            0
          ],
          [
            5374861143,
            9053077286,
            0
          ],
          [
            9053077286,
            13527622504,
            0
          ],
          [
            13527622504,
            13167173350,
            0
          ],
          [
            13167173350,
            13527622497,
            0
          ],
          [
            13527622497,
            564083093,
            0
          ],
          [
            564083093,
            6317320202,
            0
          ],
          [
            6317320202,
            564083165,
            0
          ],
          [
            564083165,
            13167173329,
            0
          ],
          [
            13167173329,
            6317320222,
            0
          ],
          [
            6317320222,
            6028645652,
            0
          ],
          [
            6028645652,
            2369336843,
            0
          ],
          [
            2369336843,
            2369336701,
            0
          ],
          [
            2369336701,
            12333484744,
            0
          ],
          [
            12333484744,
            2368579077,
            0
          ],
          [
            2368579077,
            2369336820,
            0
          ],
          [
            2369336820,
            2368578991,
            0
          ],
          [
            2368578991,
            8887740818,
            0
          ],
          [
            8887740818,
            9570709534,
            0
          ],
          [
            9570709534,
            2369336807,
            0
          ],
          [
            2369336807,
            2368578970,
            0
          ],
          [
            2368578970,
            6043430915,
            0
          ],
          [
            6043430915,
            4899192485,
            0
          ],
          [
            4899192485,
            564639012,
            0
          ],
          [
            564639012,
            564638925,
            0
          ],
          [
            564638925,
            504640818,
            0
          ],
          [
            504640818,
            504637096,
            0
          ],
          [
            504637096,
            2787061089,
            0
          ],
          [
            2787061089,
            2787061351,
            0
          ],
          [
            2787061351,
            2787061330,
            0
          ],
          [
            2787061330,
            11155489650,
            0
          ],
          [
            11155489650,
            2787061341,
            0
          ],
          [
            2787061341,
            2787061167,
            0
          ]
        ],
        "risk_exposure": 0.28961170667278924,
        "computation_ms": 17.42929994361475,
        "data_type": "DERIVED_FROM_REAL"
      }
    }
  ]
}