{
"type": "FeatureCollection",
"name": "real_routes_utm",
"crs": { "type": "name", "properties": { "name": "urn:ogc:def:crs:EPSG::32650" } },
"features": [
{ "type": "Feature", "properties": { "route": "shortest", "order": 0 }, "geometry": { "type": "LineString", "coordinates": [ [ 194740.16962223459268, 2494106.062691984232515 ], [ 194737.159113140893169, 2494101.212157766334713 ], [ 194730.680950363574084, 2494090.788608917500824 ], [ 194724.117131501203403, 2494080.200499158352613 ], [ 194715.479411059583072, 2494066.295052755624056 ] ] } },
{ "type": "Feature", "properties": { "route": "shortest", "order": 1 }, "geometry": { "type": "LineString", "coordinates": [ [ 194740.16962223459268, 2494106.062691984232515 ], [ 194751.537021442607511, 2494098.754104434046894 ] ] } },
{ "type": "Feature", "properties": { "route": "shortest", "order": 2 }, "geometry": { "type": "LineString", "coordinates": [ [ 194751.537021442607511, 2494098.754104434046894 ], [ 194764.272744033543859, 2494090.86414176505059 ], [ 194767.670252572570462, 2494088.757171877659857 ], [ 194803.935002533369698, 2494066.311949513852596 ] ] } },
{ "type": "Feature", "properties": { "route": "shortest", "order": 3 }, "geometry": { "type": "LineString", "coordinates": [ [ 194803.935002533369698, 2494066.311949513852596 ], [ 194958.190778754942585, 2493970.829606839921325 ], [ 194961.049160026130266, 2493969.054828395135701 ] ] } },
{ "type": "Feature", "properties": { "route": "shortest", "order": 4 }, "geometry": { "type": "LineString", "coordinates": [ [ 194961.049160026130266, 2493969.054828395135701 ], [ 195159.750902061583474, 2493846.046442714519799 ] ] } },
{ "type": "Feature", "properties": { "route": "shortest", "order": 5 }, "geometry": { "type": "LineString", "coordinates": [ [ 195159.750902061583474, 2493846.046442714519799 ], [ 195204.846726329764351, 2493818.140040496829897 ] ] } },
{ "type": "Feature", "properties": { "route": "shortest", "order": 6 }, "geometry": { "type": "LineString", "coordinates": [ [ 195204.846726329764351, 2493818.140040496829897 ], [ 195219.749708152201492, 2493808.910697551444173 ], [ 195225.029453388822731, 2493805.647024401929229 ], [ 195240.797086130653042, 2493795.879605593159795 ] ] } },
{ "type": "Feature", "properties": { "route": "shortest", "order": 7 }, "geometry": { "type": "LineString", "coordinates": [ [ 195240.797086130653042, 2493795.879605593159795 ], [ 195256.707529603736475, 2493786.042869522701949 ], [ 195262.516185188083909, 2493782.447284871246666 ] ] } },
{ "type": "Feature", "properties": { "route": "shortest", "order": 8 }, "geometry": { "type": "LineString", "coordinates": [ [ 195262.516185188083909, 2493782.447284871246666 ], [ 195533.216417378513142, 2493614.87782080238685 ], [ 195619.950001101417001, 2493562.67204471770674 ] ] } },
{ "type": "Feature", "properties": { "route": "shortest", "order": 9 }, "geometry": { "type": "LineString", "coordinates": [ [ 195619.950001101417001, 2493562.67204471770674 ], [ 195659.171498570358381, 2493537.055998772382736 ] ] } },
{ "type": "Feature", "properties": { "route": "shortest", "order": 10 }, "geometry": { "type": "LineString", "coordinates": [ [ 195659.171498570358381, 2493537.055998772382736 ], [ 195663.2685353627312, 2493534.381205677986145 ], [ 195668.00947069353424, 2493531.460900922771543 ], [ 195680.460920603654813, 2493523.732632170896977 ] ] } },
{ "type": "Feature", "properties": { "route": "shortest", "order": 11 }, "geometry": { "type": "LineString", "coordinates": [ [ 195680.460920603654813, 2493523.732632170896977 ], [ 195691.763228826166596, 2493516.73650567792356 ] ] } },
{ "type": "Feature", "properties": { "route": "shortest", "order": 12 }, "geometry": { "type": "LineString", "coordinates": [ [ 195691.763228826166596, 2493516.73650567792356 ], [ 195703.065327385556884, 2493509.729308911599219 ], [ 195710.13546781160403, 2493505.344148540869355 ], [ 195740.178036028228234, 2493487.336394033394754 ] ] } },
{ "type": "Feature", "properties": { "route": "shortest", "order": 13 }, "geometry": { "type": "LineString", "coordinates": [ [ 195740.178036028228234, 2493487.336394033394754 ], [ 195749.006634510646109, 2493481.264918078668416 ], [ 195837.04427826119354, 2493426.71818192768842 ] ] } },
{ "type": "Feature", "properties": { "route": "shortest", "order": 14 }, "geometry": { "type": "LineString", "coordinates": [ [ 195837.04427826119354, 2493426.71818192768842 ], [ 195905.133060794847552, 2493384.537425383925438 ], [ 195958.488345025572926, 2493354.97389940219 ], [ 196005.167316929961089, 2493330.962714980356395 ], [ 196051.659599787381012, 2493308.440653445199132 ], [ 196094.067973401281051, 2493289.779148614965379 ], [ 196137.225470372359268, 2493272.543903828132898 ], [ 196180.607535940886009, 2493256.246504206210375 ], [ 196225.294791469408665, 2493241.375470229424536 ], [ 196266.689367572311312, 2493228.719931096304208 ], [ 196310.294534066691995, 2493216.929747621994466 ], [ 196368.248127795755863, 2493202.706050046719611 ], [ 196413.22440005216049, 2493193.593618272803724 ], [ 196456.346457603969611, 2493186.01427712989971 ], [ 196498.028884300030768, 2493180.10391887370497 ], [ 196543.383765907667112, 2493176.083081361837685 ], [ 196556.951538079825696, 2493175.316549055743963 ] ] } },
{ "type": "Feature", "properties": { "route": "shortest", "order": 15 }, "geometry": { "type": "LineString", "coordinates": [ [ 196556.951538079825696, 2493175.316549055743963 ], [ 196589.466838446678594, 2493173.47785525675863 ], [ 196607.668617315357551, 2493172.187654066365212 ] ] } },
{ "type": "Feature", "properties": { "route": "shortest", "order": 16 }, "geometry": { "type": "LineString", "coordinates": [ [ 196607.668617315357551, 2493172.187654066365212 ], [ 196621.003584093356039, 2493171.104334724135697 ] ] } },
{ "type": "Feature", "properties": { "route": "shortest", "order": 17 }, "geometry": { "type": "LineString", "coordinates": [ [ 196621.003584093356039, 2493171.104334724135697 ], [ 196638.134364290221129, 2493169.813132468145341 ], [ 196666.25062225619331, 2493169.44689637189731 ] ] } },
{ "type": "Feature", "properties": { "route": "shortest", "order": 18 }, "geometry": { "type": "LineString", "coordinates": [ [ 196666.25062225619331, 2493169.44689637189731 ], [ 196713.650115972734056, 2493168.844458194449544 ], [ 196770.042878511652816, 2493168.929372249171138 ], [ 196833.008197471615858, 2493171.755672249011695 ] ] } },
{ "type": "Feature", "properties": { "route": "shortest", "order": 19 }, "geometry": { "type": "LineString", "coordinates": [ [ 196833.008197471615858, 2493171.755672249011695 ], [ 196884.372649614640977, 2493176.395919981878251 ], [ 196958.819286286830902, 2493184.937439964152873 ], [ 197005.64251897612121, 2493192.726767073851079 ], [ 197052.492501344007906, 2493202.399985042400658 ] ] } },
{ "type": "Feature", "properties": { "route": "shortest", "order": 20 }, "geometry": { "type": "LineString", "coordinates": [ [ 197052.492501344007906, 2493202.399985042400658 ], [ 197119.855150225048419, 2493220.414555482100695 ], [ 197167.647113050508779, 2493233.483420044183731 ], [ 197227.010301574773621, 2493251.611636046785861 ], [ 197296.502612713200506, 2493277.399199785664678 ], [ 197358.900668390153442, 2493304.290985928382725 ], [ 197385.479236653016414, 2493316.858050129376352 ] ] } },
{ "type": "Feature", "properties": { "route": "shortest", "order": 21 }, "geometry": { "type": "LineString", "coordinates": [ [ 197385.479236653016414, 2493316.858050129376352 ], [ 197405.63955873157829, 2493326.669629450887442 ], [ 197444.173860146547668, 2493346.050908617209643 ], [ 197456.251976774889044, 2493351.754255250561982 ] ] } },
{ "type": "Feature", "properties": { "route": "shortest", "order": 22 }, "geometry": { "type": "LineString", "coordinates": [ [ 197456.251976774889044, 2493351.754255250561982 ], [ 197507.917460389668122, 2493379.079437922686338 ], [ 197563.572131754888687, 2493410.283276190049946 ], [ 197598.932476851623505, 2493434.28283186070621 ], [ 197626.99746703467099, 2493453.338390810415149 ] ] } },
{ "type": "Feature", "properties": { "route": "shortest", "order": 23 }, "geometry": { "type": "LineString", "coordinates": [ [ 197626.99746703467099, 2493453.338390810415149 ], [ 197637.252843892027158, 2493456.42864054068923 ], [ 197647.400374306074809, 2493458.224194193724543 ], [ 197656.338864282879513, 2493458.757790660951287 ], [ 197664.444657464919146, 2493457.268318497110158 ], [ 197673.074332927179057, 2493453.618261751718819 ], [ 197680.5162711921148, 2493448.218132199719548 ] ] } },
{ "type": "Feature", "properties": { "route": "shortest", "order": 24 }, "geometry": { "type": "LineString", "coordinates": [ [ 197696.632666640391108, 2493452.966607531066984 ], [ 197693.424659922195133, 2493454.260003309231251 ], [ 197690.430041371961124, 2493454.884166767820716 ], [ 197688.024662804382388, 2493454.576776463538408 ], [ 197685.64586192421848, 2493453.526238927617669 ], [ 197680.5162711921148, 2493448.218132199719548 ] ] } },
{ "type": "Feature", "properties": { "route": "shortest", "order": 25 }, "geometry": { "type": "LineString", "coordinates": [ [ 197775.118351097742561, 2493376.884069417603314 ], [ 197696.632666640391108, 2493452.966607531066984 ] ] } },
{ "type": "Feature", "properties": { "route": "shortest", "order": 26 }, "geometry": { "type": "LineString", "coordinates": [ [ 197775.118351097742561, 2493376.884069417603314 ], [ 197782.827475590631366, 2493384.02577300183475 ], [ 197788.537625463388395, 2493389.533095062244684 ], [ 197805.45915551512735, 2493409.57278703385964 ], [ 197836.053986695653293, 2493445.238135955296457 ], [ 197866.554019002884161, 2493481.326580703258514 ], [ 197923.48642469040351, 2493549.848235091660172 ] ] } },
{ "type": "Feature", "properties": { "route": "shortest", "order": 27 }, "geometry": { "type": "LineString", "coordinates": [ [ 198212.040609950665385, 2494024.990232174750417 ], [ 198191.633249771024566, 2493979.969038107898086 ], [ 198175.544193487381563, 2493947.731490904465318 ], [ 198160.616203102108557, 2493917.466258779168129 ], [ 198140.451353751530405, 2493880.088240416254848 ], [ 198119.500175781839062, 2493839.378335607703775 ], [ 198089.173545123951044, 2493785.840051772072911 ], [ 198052.75010580936214, 2493729.65057140449062 ], [ 198011.907766187156085, 2493667.640215171966702 ], [ 198004.138352571579162, 2493655.844362734816968 ], [ 197961.841029443952721, 2493598.939113535452634 ], [ 197923.48642469040351, 2493549.848235091660172 ] ] } },
{ "type": "Feature", "properties": { "route": "shortest", "order": 28 }, "geometry": { "type": "LineString", "coordinates": [ [ 198227.91836864472134, 2494018.150077196769416 ], [ 198212.040609950665385, 2494024.990232174750417 ] ] } },
{ "type": "Feature", "properties": { "route": "shortest", "order": 29 }, "geometry": { "type": "LineString", "coordinates": [ [ 198227.91836864472134, 2494018.150077196769416 ], [ 198228.286313757707831, 2493977.09913267288357 ], [ 198218.199426148319617, 2493954.242629327811301 ], [ 198271.384576295502484, 2493931.69577574590221 ] ] } },
{ "type": "Feature", "properties": { "route": "shortest", "order": 30 }, "geometry": { "type": "LineString", "coordinates": [ [ 198271.384576295502484, 2493931.69577574590221 ], [ 198274.08938532799948, 2493937.295474790036678 ], [ 198276.804485863889568, 2493942.894972075242549 ] ] } },
{ "type": "Feature", "properties": { "route": "shortest", "order": 31 }, "geometry": { "type": "LineString", "coordinates": [ [ 198276.804485863889568, 2493942.894972075242549 ], [ 198282.814872668066528, 2493955.323976535815746 ] ] } },
{ "type": "Feature", "properties": { "route": "shortest", "order": 32 }, "geometry": { "type": "LineString", "coordinates": [ [ 198282.814872668066528, 2493955.323976535815746 ], [ 198291.521411154593807, 2493959.797238217666745 ], [ 198298.111458356957883, 2493964.511555938981473 ], [ 198303.155201761343051, 2493970.187273538671434 ], [ 198363.010924343776423, 2494092.886226397473365 ], [ 198366.423298266134225, 2494096.765128496102989 ], [ 198370.275017309642863, 2494098.89523733779788 ], [ 198376.163831716345157, 2494099.888065575156361 ], [ 198381.75523780612275, 2494099.368238190189004 ], [ 198408.608993760368321, 2494088.821460213512182 ], [ 198477.7974269912811, 2494063.223571778275073 ], [ 198498.631869976117741, 2494056.574653333518654 ] ] } },
{ "type": "Feature", "properties": { "route": "shortest", "order": 33 }, "geometry": { "type": "LineString", "coordinates": [ [ 198498.631869976117741, 2494056.574653333518654 ], [ 198513.76274754590122, 2494052.077070761006325 ] ] } },
{ "type": "Feature", "properties": { "route": "shortest", "order": 34 }, "geometry": { "type": "LineString", "coordinates": [ [ 198513.76274754590122, 2494052.077070761006325 ], [ 198520.183724993548822, 2494050.27746233670041 ], [ 198526.451175892027095, 2494048.52520351158455 ], [ 198539.606493869447149, 2494045.152616534382105 ], [ 198550.703189532505348, 2494041.820414869580418 ], [ 198588.379617344238795, 2494028.135588006582111 ], [ 198594.85150564572541, 2494025.780821098946035 ] ] } },
{ "type": "Feature", "properties": { "route": "shortest", "order": 35 }, "geometry": { "type": "LineString", "coordinates": [ [ 198594.85150564572541, 2494025.780821098946035 ], [ 198624.409984126919881, 2494015.048413814045489 ], [ 198637.470314215344843, 2494011.555856926832348 ], [ 198666.204542971390765, 2494006.049115828704089 ], [ 198673.11505966790719, 2494004.007217924110591 ], [ 198688.346041938581038, 2493999.884709596633911 ], [ 198701.561310015793424, 2493995.890399576164782 ] ] } },
{ "type": "Feature", "properties": { "route": "shortest", "order": 36 }, "geometry": { "type": "LineString", "coordinates": [ [ 198704.598588593362365, 2494004.276768994517624 ], [ 198701.561310015793424, 2493995.890399576164782 ] ] } },
{ "type": "Feature", "properties": { "route": "shortest", "order": 37 }, "geometry": { "type": "LineString", "coordinates": [ [ 198715.6914257457247, 2494000.745260938070714 ], [ 198704.598588593362365, 2494004.276768994517624 ] ] } },
{ "type": "Feature", "properties": { "route": "shortest", "order": 38 }, "geometry": { "type": "LineString", "coordinates": [ [ 198779.24772813526215, 2493960.417957563418895 ], [ 198777.115151950914878, 2493967.719674802385271 ], [ 198774.650944961234927, 2493972.81112004769966 ], [ 198771.14105115638813, 2493977.612710206769407 ], [ 198766.235503842239268, 2493982.131304508540779 ], [ 198761.359277418756392, 2493985.518772540614009 ], [ 198755.836931026366074, 2493987.987860917113721 ], [ 198727.33705688174814, 2493997.047752698417753 ], [ 198715.6914257457247, 2494000.745260938070714 ] ] } },
{ "type": "Feature", "properties": { "route": "shortest", "order": 39 }, "geometry": { "type": "LineString", "coordinates": [ [ 198779.24772813526215, 2493960.417957563418895 ], [ 198796.607539607328363, 2493977.701108939014375 ], [ 198866.514428090362344, 2493952.988833446986973 ], [ 198882.539000339224003, 2493999.360075334552675 ] ] } },
{ "type": "Feature", "properties": { "route": "risk", "order": 0 }, "geometry": { "type": "LineString", "coordinates": [ [ 194740.16962223459268, 2494106.062691984232515 ], [ 194737.159113140893169, 2494101.212157766334713 ], [ 194730.680950363574084, 2494090.788608917500824 ], [ 194724.117131501203403, 2494080.200499158352613 ], [ 194715.479411059583072, 2494066.295052755624056 ] ] } },
{ "type": "Feature", "properties": { "route": "risk", "order": 1 }, "geometry": { "type": "LineString", "coordinates": [ [ 194749.137398478051182, 2494120.515804617200047 ], [ 194740.16962223459268, 2494106.062691984232515 ] ] } },
{ "type": "Feature", "properties": { "route": "risk", "order": 2 }, "geometry": { "type": "LineString", "coordinates": [ [ 194760.67603618389694, 2494113.015389858745039 ], [ 194749.137398478051182, 2494120.515804617200047 ] ] } },
{ "type": "Feature", "properties": { "route": "risk", "order": 3 }, "geometry": { "type": "LineString", "coordinates": [ [ 194760.67603618389694, 2494113.015389858745039 ], [ 194766.94407402939396, 2494122.711559928487986 ], [ 194769.572127113409806, 2494126.971143756527454 ], [ 194785.240171922545414, 2494153.184614227153361 ] ] } },
{ "type": "Feature", "properties": { "route": "risk", "order": 4 }, "geometry": { "type": "LineString", "coordinates": [ [ 194785.240171922545414, 2494153.184614227153361 ], [ 194838.8817272594315, 2494239.917805950623006 ], [ 194844.275137548276689, 2494249.132570029236376 ], [ 194849.673381598200649, 2494258.591092584189028 ], [ 194854.011055836628657, 2494266.496710430365056 ], [ 194857.757344907033257, 2494273.660341791342944 ], [ 194860.620033630577382, 2494279.367312256246805 ], [ 194863.369714665983338, 2494285.087610852438956 ], [ 194866.368282721727155, 2494291.933561028912663 ], [ 194870.633720824378543, 2494302.944203 ] ] } },
{ "type": "Feature", "properties": { "route": "risk", "order": 5 }, "geometry": { "type": "LineString", "coordinates": [ [ 194870.633720824378543, 2494302.944203 ], [ 194872.102847105183173, 2494305.885612640995532 ], [ 194873.580461027740967, 2494308.217220620252192 ], [ 194875.371051046997309, 2494310.753215736243874 ], [ 194877.645202580082696, 2494313.268526653759181 ], [ 194880.244337526964955, 2494315.555701199918985 ], [ 194883.405640070035588, 2494317.632199303712696 ], [ 194886.766867352183908, 2494319.405454503372312 ], [ 194890.257286621199455, 2494320.943376577924937 ], [ 194893.451136384683196, 2494322.065985749941319 ], [ 194896.474795111105777, 2494322.914868146181107 ], [ 194899.379509172402322, 2494323.477922132704407 ], [ 194902.133959170605522, 2494323.733600921463221 ], [ 194905.274712710408494, 2494323.737758375704288 ], [ 194907.98948488564929, 2494323.55085634579882 ], [ 194910.361721340508666, 2494323.226659337989986 ], [ 194912.545820525090676, 2494322.762102281209081 ], [ 194914.184378831996582, 2494322.308374849613756 ], [ 194915.624946570314933, 2494321.736651208717376 ] ] } },
{ "type": "Feature", "properties": { "route": "risk", "order": 6 }, "geometry": { "type": "LineString", "coordinates": [ [ 195020.306828695756849, 2494266.199799773283303 ], [ 194974.467998801090289, 2494290.308751055505127 ], [ 194915.624946570314933, 2494321.736651208717376 ] ] } },
{ "type": "Feature", "properties": { "route": "risk", "order": 7 }, "geometry": { "type": "LineString", "coordinates": [ [ 195020.306828695756849, 2494266.199799773283303 ], [ 195021.30024061986478, 2494274.748193728271872 ], [ 195021.33725995500572, 2494283.359902530442923 ], [ 195008.42995817202609, 2494425.29463422531262 ], [ 195231.077426966570783, 2494444.586847085040063 ] ] } },
{ "type": "Feature", "properties": { "route": "risk", "order": 8 }, "geometry": { "type": "LineString", "coordinates": [ [ 195343.582845338038169, 2494455.945381123106927 ], [ 195231.077426966570783, 2494444.586847085040063 ] ] } },
{ "type": "Feature", "properties": { "route": "risk", "order": 9 }, "geometry": { "type": "LineString", "coordinates": [ [ 195554.024992594611831, 2494476.714443723205477 ], [ 195343.582845338038169, 2494455.945381123106927 ] ] } },
{ "type": "Feature", "properties": { "route": "risk", "order": 10 }, "geometry": { "type": "LineString", "coordinates": [ [ 195554.024992594611831, 2494476.714443723205477 ], [ 195571.770188001624774, 2494479.998524358030409 ] ] } },
{ "type": "Feature", "properties": { "route": "risk", "order": 11 }, "geometry": { "type": "LineString", "coordinates": [ [ 195600.334957037586719, 2494562.164969748817384 ], [ 195538.164645131386351, 2494552.456487650051713 ], [ 195555.733690665161703, 2494487.598507773131132 ], [ 195568.443892777548172, 2494487.779002179857343 ], [ 195571.770188001624774, 2494479.998524358030409 ] ] } },
{ "type": "Feature", "properties": { "route": "risk", "order": 12 }, "geometry": { "type": "LineString", "coordinates": [ [ 195597.95566091616638, 2494586.043072906788439 ], [ 195600.334957037586719, 2494562.164969748817384 ] ] } },
{ "type": "Feature", "properties": { "route": "risk", "order": 13 }, "geometry": { "type": "LineString", "coordinates": [ [ 195597.95566091616638, 2494586.043072906788439 ], [ 195613.299773320206441, 2494588.199823236558586 ], [ 195672.673436292272527, 2494597.60927306022495 ] ] } },
{ "type": "Feature", "properties": { "route": "risk", "order": 14 }, "geometry": { "type": "LineString", "coordinates": [ [ 195672.673436292272527, 2494597.60927306022495 ], [ 195698.054326009005308, 2494601.185630191117525 ] ] } },
{ "type": "Feature", "properties": { "route": "risk", "order": 15 }, "geometry": { "type": "LineString", "coordinates": [ [ 195698.054326009005308, 2494601.185630191117525 ], [ 195726.632144943752792, 2494604.488127964083105 ] ] } },
{ "type": "Feature", "properties": { "route": "risk", "order": 16 }, "geometry": { "type": "LineString", "coordinates": [ [ 195726.632144943752792, 2494604.488127964083105 ], [ 195781.73546035628533, 2494610.413436391856521 ] ] } },
{ "type": "Feature", "properties": { "route": "risk", "order": 17 }, "geometry": { "type": "LineString", "coordinates": [ [ 195781.73546035628533, 2494610.413436391856521 ], [ 195885.611489056667779, 2494621.857869489118457 ] ] } },
{ "type": "Feature", "properties": { "route": "risk", "order": 18 }, "geometry": { "type": "LineString", "coordinates": [ [ 195885.611489056667779, 2494621.857869489118457 ], [ 195944.574864245369099, 2494626.166656600311399 ], [ 196027.35950843320461, 2494628.618921660352498 ], [ 196099.986880618322175, 2494627.72557657584548 ] ] } },
{ "type": "Feature", "properties": { "route": "risk", "order": 19 }, "geometry": { "type": "LineString", "coordinates": [ [ 196099.986880618322175, 2494627.72557657584548 ], [ 196160.597993765433785, 2494627.369429916143417 ], [ 196224.014445122156758, 2494626.72529867105186 ] ] } },
{ "type": "Feature", "properties": { "route": "risk", "order": 20 }, "geometry": { "type": "LineString", "coordinates": [ [ 196224.014445122156758, 2494626.72529867105186 ], [ 196274.654728254827205, 2494627.763792775105685 ] ] } },
{ "type": "Feature", "properties": { "route": "risk", "order": 21 }, "geometry": { "type": "LineString", "coordinates": [ [ 196274.654728254827205, 2494627.763792775105685 ], [ 196449.044861394620966, 2494625.74783072527498 ] ] } },
{ "type": "Feature", "properties": { "route": "risk", "order": 22 }, "geometry": { "type": "LineString", "coordinates": [ [ 196449.044861394620966, 2494625.74783072527498 ], [ 196483.041005732840858, 2494625.00981985591352 ] ] } },
{ "type": "Feature", "properties": { "route": "risk", "order": 23 }, "geometry": { "type": "LineString", "coordinates": [ [ 196483.041005732840858, 2494625.00981985591352 ], [ 196638.968971273337957, 2494621.975165277719498 ] ] } },
{ "type": "Feature", "properties": { "route": "risk", "order": 24 }, "geometry": { "type": "LineString", "coordinates": [ [ 196638.968971273337957, 2494621.975165277719498 ], [ 196659.659869162831455, 2494621.677557611837983 ] ] } },
{ "type": "Feature", "properties": { "route": "risk", "order": 25 }, "geometry": { "type": "LineString", "coordinates": [ [ 196659.659869162831455, 2494621.677557611837983 ], [ 196750.46811029908713, 2494619.586018857546151 ] ] } },
{ "type": "Feature", "properties": { "route": "risk", "order": 26 }, "geometry": { "type": "LineString", "coordinates": [ [ 196750.46811029908713, 2494619.586018857546151 ], [ 196815.120728495297953, 2494619.507385166361928 ] ] } },
{ "type": "Feature", "properties": { "route": "risk", "order": 27 }, "geometry": { "type": "LineString", "coordinates": [ [ 196815.120728495297953, 2494619.507385166361928 ], [ 196825.899996249761898, 2494619.427725975867361 ], [ 196834.518195849319454, 2494619.412876769900322 ] ] } },
{ "type": "Feature", "properties": { "route": "risk", "order": 28 }, "geometry": { "type": "LineString", "coordinates": [ [ 196834.518195849319454, 2494619.412876769900322 ], [ 196845.267676194373053, 2494619.389239055570215 ], [ 196913.894840798398945, 2494624.009835246950388 ], [ 196933.186735425435472, 2494623.784523906186223 ] ] } },
{ "type": "Feature", "properties": { "route": "risk", "order": 29 }, "geometry": { "type": "LineString", "coordinates": [ [ 196933.186735425435472, 2494623.784523906186223 ], [ 196966.211495410185307, 2494623.399260189849883 ] ] } },
{ "type": "Feature", "properties": { "route": "risk", "order": 30 }, "geometry": { "type": "LineString", "coordinates": [ [ 196966.211495410185307, 2494623.399260189849883 ], [ 197343.500544252688996, 2494620.375225429423153 ] ] } },
{ "type": "Feature", "properties": { "route": "risk", "order": 31 }, "geometry": { "type": "LineString", "coordinates": [ [ 197343.500544252688996, 2494620.375225429423153 ], [ 197450.725822518696077, 2494621.12342934217304 ] ] } },
{ "type": "Feature", "properties": { "route": "risk", "order": 32 }, "geometry": { "type": "LineString", "coordinates": [ [ 197450.725822518696077, 2494621.12342934217304 ], [ 197475.884508902730886, 2494621.304239042568952 ] ] } },
{ "type": "Feature", "properties": { "route": "risk", "order": 33 }, "geometry": { "type": "LineString", "coordinates": [ [ 197475.884508902730886, 2494621.304239042568952 ], [ 197670.625588837312534, 2494619.610857806634158 ] ] } },
{ "type": "Feature", "properties": { "route": "risk", "order": 34 }, "geometry": { "type": "LineString", "coordinates": [ [ 197670.625588837312534, 2494619.610857806634158 ], [ 197802.982962859794497, 2494619.734069960191846 ] ] } },
{ "type": "Feature", "properties": { "route": "risk", "order": 35 }, "geometry": { "type": "LineString", "coordinates": [ [ 197802.982962859794497, 2494619.734069960191846 ], [ 197827.582272667030338, 2494619.749109935481101 ] ] } },
{ "type": "Feature", "properties": { "route": "risk", "order": 36 }, "geometry": { "type": "LineString", "coordinates": [ [ 197827.582272667030338, 2494619.749109935481101 ], [ 197959.628501166822389, 2494619.768944293260574 ] ] } },
{ "type": "Feature", "properties": { "route": "risk", "order": 37 }, "geometry": { "type": "LineString", "coordinates": [ [ 197959.628501166822389, 2494619.768944293260574 ], [ 198007.773917240148876, 2494619.654001466929913 ] ] } },
{ "type": "Feature", "properties": { "route": "risk", "order": 38 }, "geometry": { "type": "LineString", "coordinates": [ [ 198007.773917240148876, 2494619.654001466929913 ], [ 198034.71362423885148, 2494619.3019436779432 ] ] } },
{ "type": "Feature", "properties": { "route": "risk", "order": 39 }, "geometry": { "type": "LineString", "coordinates": [ [ 198034.71362423885148, 2494619.3019436779432 ], [ 198197.608347970177419, 2494617.21024666307494 ] ] } },
{ "type": "Feature", "properties": { "route": "risk", "order": 40 }, "geometry": { "type": "LineString", "coordinates": [ [ 198197.608347970177419, 2494617.21024666307494 ], [ 198351.304056804219726, 2494616.497909659519792 ] ] } },
{ "type": "Feature", "properties": { "route": "risk", "order": 41 }, "geometry": { "type": "LineString", "coordinates": [ [ 198351.304056804219726, 2494616.497909659519792 ], [ 198514.052847990009468, 2494615.387810152489692 ] ] } },
{ "type": "Feature", "properties": { "route": "risk", "order": 42 }, "geometry": { "type": "LineString", "coordinates": [ [ 198514.052847990009468, 2494615.387810152489692 ], [ 198524.112662355822977, 2494611.710105588193983 ], [ 198530.874234486138448, 2494607.864351463038474 ], [ 198538.090661057678517, 2494602.535520331468433 ], [ 198544.923029219615273, 2494593.900144706945866 ], [ 198548.727095423731953, 2494584.160370121244341 ], [ 198549.569176263699774, 2494573.547654455062002 ], [ 198548.400036910024937, 2494562.763798386324197 ], [ 198545.682553822058253, 2494552.309580554254353 ], [ 198540.811622155597433, 2494542.307710509747267 ], [ 198533.267226496478543, 2494533.544263269752264 ], [ 198523.807182245305739, 2494526.857835120521486 ], [ 198511.128802865743637, 2494521.453778675291687 ], [ 198497.298465264844708, 2494519.264493185095489 ], [ 198483.380760607076809, 2494519.969829922541976 ], [ 198470.272693615173921, 2494523.629777017980814 ], [ 198459.936938099155668, 2494530.039563164580613 ], [ 198450.812904064776376, 2494539.429316202644259 ], [ 198443.223951696010772, 2494550.961396772414446 ], [ 198436.284614427248016, 2494563.589124660473317 ], [ 198430.693500612280332, 2494575.658372181933373 ] ] } },
{ "type": "Feature", "properties": { "route": "risk", "order": 43 }, "geometry": { "type": "LineString", "coordinates": [ [ 198425.43892782938201, 2494394.994189760182053 ], [ 198427.832525069708936, 2494418.323159252293408 ], [ 198429.393489931942895, 2494440.149973818100989 ], [ 198430.224027678777929, 2494460.96031950134784 ], [ 198430.867931980174035, 2494477.507027194369584 ], [ 198431.152531941130292, 2494493.58417830336839 ], [ 198430.693500612280332, 2494575.658372181933373 ] ] } },
{ "type": "Feature", "properties": { "route": "risk", "order": 44 }, "geometry": { "type": "LineString", "coordinates": [ [ 198409.456370295141824, 2494295.730085262097418 ], [ 198414.171695834491402, 2494319.833703158423305 ], [ 198417.96014959376771, 2494341.30645794281736 ], [ 198425.43892782938201, 2494394.994189760182053 ] ] } },
{ "type": "Feature", "properties": { "route": "risk", "order": 45 }, "geometry": { "type": "LineString", "coordinates": [ [ 198522.538350204296876, 2494069.528319468256086 ], [ 198488.220435284834821, 2494077.516832808032632 ], [ 198476.692115297366399, 2494080.890803651884198 ], [ 198427.388491413265001, 2494098.672338518314064 ], [ 198414.867908588028513, 2494105.003060111775994 ], [ 198405.510284738789778, 2494111.947847251780331 ], [ 198397.330857725755777, 2494120.687280973419547 ], [ 198391.359881918935571, 2494130.72453529201448 ], [ 198388.244303028448485, 2494140.395411413162947 ], [ 198386.869637156778481, 2494149.577686166856438 ], [ 198386.630461961263791, 2494162.05176434898749 ], [ 198387.908716546487994, 2494174.717743214219809 ], [ 198390.106970742577687, 2494185.991265086457133 ], [ 198396.033268749946728, 2494215.657403097487986 ], [ 198404.136452205071691, 2494245.014810369815677 ], [ 198406.925495172734372, 2494264.356900497339666 ], [ 198409.456370295141824, 2494295.730085262097418 ] ] } },
{ "type": "Feature", "properties": { "route": "risk", "order": 46 }, "geometry": { "type": "LineString", "coordinates": [ [ 198704.598588593362365, 2494004.276768994517624 ], [ 198675.773557321692351, 2494014.606698776595294 ], [ 198601.579233792261221, 2494041.199576144572347 ], [ 198522.538350204296876, 2494069.528319468256086 ] ] } },
{ "type": "Feature", "properties": { "route": "risk", "order": 47 }, "geometry": { "type": "LineString", "coordinates": [ [ 198715.6914257457247, 2494000.745260938070714 ], [ 198704.598588593362365, 2494004.276768994517624 ] ] } },
{ "type": "Feature", "properties": { "route": "risk", "order": 48 }, "geometry": { "type": "LineString", "coordinates": [ [ 198779.24772813526215, 2493960.417957563418895 ], [ 198777.115151950914878, 2493967.719674802385271 ], [ 198774.650944961234927, 2493972.81112004769966 ], [ 198771.14105115638813, 2493977.612710206769407 ], [ 198766.235503842239268, 2493982.131304508540779 ], [ 198761.359277418756392, 2493985.518772540614009 ], [ 198755.836931026366074, 2493987.987860917113721 ], [ 198727.33705688174814, 2493997.047752698417753 ], [ 198715.6914257457247, 2494000.745260938070714 ] ] } },
{ "type": "Feature", "properties": { "route": "risk", "order": 49 }, "geometry": { "type": "LineString", "coordinates": [ [ 198779.24772813526215, 2493960.417957563418895 ], [ 198796.607539607328363, 2493977.701108939014375 ], [ 198866.514428090362344, 2493952.988833446986973 ], [ 198882.539000339224003, 2493999.360075334552675 ] ] } },
{ "type": "Feature", "properties": { "route": "trusted", "order": 0 }, "geometry": { "type": "LineString", "coordinates": [ [ 194740.16962223459268, 2494106.062691984232515 ], [ 194737.159113140893169, 2494101.212157766334713 ], [ 194730.680950363574084, 2494090.788608917500824 ], [ 194724.117131501203403, 2494080.200499158352613 ], [ 194715.479411059583072, 2494066.295052755624056 ] ] } },
{ "type": "Feature", "properties": { "route": "trusted", "order": 1 }, "geometry": { "type": "LineString", "coordinates": [ [ 194740.16962223459268, 2494106.062691984232515 ], [ 194751.537021442607511, 2494098.754104434046894 ] ] } },
{ "type": "Feature", "properties": { "route": "trusted", "order": 2 }, "geometry": { "type": "LineString", "coordinates": [ [ 194751.537021442607511, 2494098.754104434046894 ], [ 194760.67603618389694, 2494113.015389858745039 ] ] } },
{ "type": "Feature", "properties": { "route": "trusted", "order": 3 }, "geometry": { "type": "LineString", "coordinates": [ [ 194760.67603618389694, 2494113.015389858745039 ], [ 194766.94407402939396, 2494122.711559928487986 ], [ 194769.572127113409806, 2494126.971143756527454 ], [ 194785.240171922545414, 2494153.184614227153361 ] ] } },
{ "type": "Feature", "properties": { "route": "trusted", "order": 4 }, "geometry": { "type": "LineString", "coordinates": [ [ 194785.240171922545414, 2494153.184614227153361 ], [ 194838.8817272594315, 2494239.917805950623006 ], [ 194844.275137548276689, 2494249.132570029236376 ], [ 194849.673381598200649, 2494258.591092584189028 ], [ 194854.011055836628657, 2494266.496710430365056 ], [ 194857.757344907033257, 2494273.660341791342944 ], [ 194860.620033630577382, 2494279.367312256246805 ], [ 194863.369714665983338, 2494285.087610852438956 ], [ 194866.368282721727155, 2494291.933561028912663 ], [ 194870.633720824378543, 2494302.944203 ] ] } },
{ "type": "Feature", "properties": { "route": "trusted", "order": 5 }, "geometry": { "type": "LineString", "coordinates": [ [ 194870.633720824378543, 2494302.944203 ], [ 194872.102847105183173, 2494305.885612640995532 ], [ 194873.580461027740967, 2494308.217220620252192 ], [ 194875.371051046997309, 2494310.753215736243874 ], [ 194877.645202580082696, 2494313.268526653759181 ], [ 194880.244337526964955, 2494315.555701199918985 ], [ 194883.405640070035588, 2494317.632199303712696 ], [ 194886.766867352183908, 2494319.405454503372312 ], [ 194890.257286621199455, 2494320.943376577924937 ], [ 194893.451136384683196, 2494322.065985749941319 ], [ 194896.474795111105777, 2494322.914868146181107 ], [ 194899.379509172402322, 2494323.477922132704407 ], [ 194902.133959170605522, 2494323.733600921463221 ], [ 194905.274712710408494, 2494323.737758375704288 ], [ 194907.98948488564929, 2494323.55085634579882 ], [ 194910.361721340508666, 2494323.226659337989986 ], [ 194912.545820525090676, 2494322.762102281209081 ], [ 194914.184378831996582, 2494322.308374849613756 ], [ 194915.624946570314933, 2494321.736651208717376 ] ] } },
{ "type": "Feature", "properties": { "route": "trusted", "order": 6 }, "geometry": { "type": "LineString", "coordinates": [ [ 195020.306828695756849, 2494266.199799773283303 ], [ 194974.467998801090289, 2494290.308751055505127 ], [ 194915.624946570314933, 2494321.736651208717376 ] ] } },
{ "type": "Feature", "properties": { "route": "trusted", "order": 7 }, "geometry": { "type": "LineString", "coordinates": [ [ 195020.306828695756849, 2494266.199799773283303 ], [ 195021.30024061986478, 2494274.748193728271872 ], [ 195021.33725995500572, 2494283.359902530442923 ], [ 195008.42995817202609, 2494425.29463422531262 ], [ 195231.077426966570783, 2494444.586847085040063 ] ] } },
{ "type": "Feature", "properties": { "route": "trusted", "order": 8 }, "geometry": { "type": "LineString", "coordinates": [ [ 195343.582845338038169, 2494455.945381123106927 ], [ 195231.077426966570783, 2494444.586847085040063 ] ] } },
{ "type": "Feature", "properties": { "route": "trusted", "order": 9 }, "geometry": { "type": "LineString", "coordinates": [ [ 195554.024992594611831, 2494476.714443723205477 ], [ 195343.582845338038169, 2494455.945381123106927 ] ] } },
{ "type": "Feature", "properties": { "route": "trusted", "order": 10 }, "geometry": { "type": "LineString", "coordinates": [ [ 195554.024992594611831, 2494476.714443723205477 ], [ 195571.770188001624774, 2494479.998524358030409 ] ] } },
{ "type": "Feature", "properties": { "route": "trusted", "order": 11 }, "geometry": { "type": "LineString", "coordinates": [ [ 195600.334957037586719, 2494562.164969748817384 ], [ 195538.164645131386351, 2494552.456487650051713 ], [ 195555.733690665161703, 2494487.598507773131132 ], [ 195568.443892777548172, 2494487.779002179857343 ], [ 195571.770188001624774, 2494479.998524358030409 ] ] } },
{ "type": "Feature", "properties": { "route": "trusted", "order": 12 }, "geometry": { "type": "LineString", "coordinates": [ [ 195597.95566091616638, 2494586.043072906788439 ], [ 195600.334957037586719, 2494562.164969748817384 ] ] } },
{ "type": "Feature", "properties": { "route": "trusted", "order": 13 }, "geometry": { "type": "LineString", "coordinates": [ [ 195597.95566091616638, 2494586.043072906788439 ], [ 195613.299773320206441, 2494588.199823236558586 ], [ 195672.673436292272527, 2494597.60927306022495 ] ] } },
{ "type": "Feature", "properties": { "route": "trusted", "order": 14 }, "geometry": { "type": "LineString", "coordinates": [ [ 195672.673436292272527, 2494597.60927306022495 ], [ 195698.054326009005308, 2494601.185630191117525 ] ] } },
{ "type": "Feature", "properties": { "route": "trusted", "order": 15 }, "geometry": { "type": "LineString", "coordinates": [ [ 195698.054326009005308, 2494601.185630191117525 ], [ 195726.632144943752792, 2494604.488127964083105 ] ] } },
{ "type": "Feature", "properties": { "route": "trusted", "order": 16 }, "geometry": { "type": "LineString", "coordinates": [ [ 195726.632144943752792, 2494604.488127964083105 ], [ 195781.73546035628533, 2494610.413436391856521 ] ] } },
{ "type": "Feature", "properties": { "route": "trusted", "order": 17 }, "geometry": { "type": "LineString", "coordinates": [ [ 195781.73546035628533, 2494610.413436391856521 ], [ 195885.611489056667779, 2494621.857869489118457 ] ] } },
{ "type": "Feature", "properties": { "route": "trusted", "order": 18 }, "geometry": { "type": "LineString", "coordinates": [ [ 195885.611489056667779, 2494621.857869489118457 ], [ 195944.574864245369099, 2494626.166656600311399 ], [ 196027.35950843320461, 2494628.618921660352498 ], [ 196099.986880618322175, 2494627.72557657584548 ] ] } },
{ "type": "Feature", "properties": { "route": "trusted", "order": 19 }, "geometry": { "type": "LineString", "coordinates": [ [ 196099.986880618322175, 2494627.72557657584548 ], [ 196160.597993765433785, 2494627.369429916143417 ], [ 196224.014445122156758, 2494626.72529867105186 ] ] } },
{ "type": "Feature", "properties": { "route": "trusted", "order": 20 }, "geometry": { "type": "LineString", "coordinates": [ [ 196224.014445122156758, 2494626.72529867105186 ], [ 196274.654728254827205, 2494627.763792775105685 ] ] } },
{ "type": "Feature", "properties": { "route": "trusted", "order": 21 }, "geometry": { "type": "LineString", "coordinates": [ [ 196274.654728254827205, 2494627.763792775105685 ], [ 196449.044861394620966, 2494625.74783072527498 ] ] } },
{ "type": "Feature", "properties": { "route": "trusted", "order": 22 }, "geometry": { "type": "LineString", "coordinates": [ [ 196449.044861394620966, 2494625.74783072527498 ], [ 196483.041005732840858, 2494625.00981985591352 ] ] } },
{ "type": "Feature", "properties": { "route": "trusted", "order": 23 }, "geometry": { "type": "LineString", "coordinates": [ [ 196483.041005732840858, 2494625.00981985591352 ], [ 196638.968971273337957, 2494621.975165277719498 ] ] } },
{ "type": "Feature", "properties": { "route": "trusted", "order": 24 }, "geometry": { "type": "LineString", "coordinates": [ [ 196638.968971273337957, 2494621.975165277719498 ], [ 196659.659869162831455, 2494621.677557611837983 ] ] } },
{ "type": "Feature", "properties": { "route": "trusted", "order": 25 }, "geometry": { "type": "LineString", "coordinates": [ [ 196659.659869162831455, 2494621.677557611837983 ], [ 196750.46811029908713, 2494619.586018857546151 ] ] } },
{ "type": "Feature", "properties": { "route": "trusted", "order": 26 }, "geometry": { "type": "LineString", "coordinates": [ [ 196750.46811029908713, 2494619.586018857546151 ], [ 196815.120728495297953, 2494619.507385166361928 ] ] } },
{ "type": "Feature", "properties": { "route": "trusted", "order": 27 }, "geometry": { "type": "LineString", "coordinates": [ [ 196815.120728495297953, 2494619.507385166361928 ], [ 196825.899996249761898, 2494619.427725975867361 ], [ 196834.518195849319454, 2494619.412876769900322 ] ] } },
{ "type": "Feature", "properties": { "route": "trusted", "order": 28 }, "geometry": { "type": "LineString", "coordinates": [ [ 196834.518195849319454, 2494619.412876769900322 ], [ 196845.267676194373053, 2494619.389239055570215 ], [ 196913.894840798398945, 2494624.009835246950388 ], [ 196933.186735425435472, 2494623.784523906186223 ] ] } },
{ "type": "Feature", "properties": { "route": "trusted", "order": 29 }, "geometry": { "type": "LineString", "coordinates": [ [ 196933.186735425435472, 2494623.784523906186223 ], [ 196966.211495410185307, 2494623.399260189849883 ] ] } },
{ "type": "Feature", "properties": { "route": "trusted", "order": 30 }, "geometry": { "type": "LineString", "coordinates": [ [ 196966.211495410185307, 2494623.399260189849883 ], [ 197343.500544252688996, 2494620.375225429423153 ] ] } },
{ "type": "Feature", "properties": { "route": "trusted", "order": 31 }, "geometry": { "type": "LineString", "coordinates": [ [ 197343.500544252688996, 2494620.375225429423153 ], [ 197450.725822518696077, 2494621.12342934217304 ] ] } },
{ "type": "Feature", "properties": { "route": "trusted", "order": 32 }, "geometry": { "type": "LineString", "coordinates": [ [ 197450.725822518696077, 2494621.12342934217304 ], [ 197475.884508902730886, 2494621.304239042568952 ] ] } },
{ "type": "Feature", "properties": { "route": "trusted", "order": 33 }, "geometry": { "type": "LineString", "coordinates": [ [ 197475.884508902730886, 2494621.304239042568952 ], [ 197670.625588837312534, 2494619.610857806634158 ] ] } },
{ "type": "Feature", "properties": { "route": "trusted", "order": 34 }, "geometry": { "type": "LineString", "coordinates": [ [ 197670.625588837312534, 2494619.610857806634158 ], [ 197802.982962859794497, 2494619.734069960191846 ] ] } },
{ "type": "Feature", "properties": { "route": "trusted", "order": 35 }, "geometry": { "type": "LineString", "coordinates": [ [ 197802.982962859794497, 2494619.734069960191846 ], [ 197827.582272667030338, 2494619.749109935481101 ] ] } },
{ "type": "Feature", "properties": { "route": "trusted", "order": 36 }, "geometry": { "type": "LineString", "coordinates": [ [ 197827.582272667030338, 2494619.749109935481101 ], [ 197959.628501166822389, 2494619.768944293260574 ] ] } },
{ "type": "Feature", "properties": { "route": "trusted", "order": 37 }, "geometry": { "type": "LineString", "coordinates": [ [ 197959.628501166822389, 2494619.768944293260574 ], [ 198007.773917240148876, 2494619.654001466929913 ] ] } },
{ "type": "Feature", "properties": { "route": "trusted", "order": 38 }, "geometry": { "type": "LineString", "coordinates": [ [ 198007.773917240148876, 2494619.654001466929913 ], [ 198034.71362423885148, 2494619.3019436779432 ] ] } },
{ "type": "Feature", "properties": { "route": "trusted", "order": 39 }, "geometry": { "type": "LineString", "coordinates": [ [ 198034.71362423885148, 2494619.3019436779432 ], [ 198197.608347970177419, 2494617.21024666307494 ] ] } },
{ "type": "Feature", "properties": { "route": "trusted", "order": 40 }, "geometry": { "type": "LineString", "coordinates": [ [ 198197.608347970177419, 2494617.21024666307494 ], [ 198351.304056804219726, 2494616.497909659519792 ] ] } },
{ "type": "Feature", "properties": { "route": "trusted", "order": 41 }, "geometry": { "type": "LineString", "coordinates": [ [ 198351.304056804219726, 2494616.497909659519792 ], [ 198514.052847990009468, 2494615.387810152489692 ] ] } },
{ "type": "Feature", "properties": { "route": "trusted", "order": 42 }, "geometry": { "type": "LineString", "coordinates": [ [ 198514.052847990009468, 2494615.387810152489692 ], [ 198524.112662355822977, 2494611.710105588193983 ], [ 198530.874234486138448, 2494607.864351463038474 ], [ 198538.090661057678517, 2494602.535520331468433 ], [ 198544.923029219615273, 2494593.900144706945866 ], [ 198548.727095423731953, 2494584.160370121244341 ], [ 198549.569176263699774, 2494573.547654455062002 ], [ 198548.400036910024937, 2494562.763798386324197 ], [ 198545.682553822058253, 2494552.309580554254353 ], [ 198540.811622155597433, 2494542.307710509747267 ], [ 198533.267226496478543, 2494533.544263269752264 ], [ 198523.807182245305739, 2494526.857835120521486 ], [ 198511.128802865743637, 2494521.453778675291687 ], [ 198497.298465264844708, 2494519.264493185095489 ], [ 198483.380760607076809, 2494519.969829922541976 ], [ 198470.272693615173921, 2494523.629777017980814 ], [ 198459.936938099155668, 2494530.039563164580613 ], [ 198450.812904064776376, 2494539.429316202644259 ], [ 198443.223951696010772, 2494550.961396772414446 ], [ 198436.284614427248016, 2494563.589124660473317 ], [ 198430.693500612280332, 2494575.658372181933373 ] ] } },
{ "type": "Feature", "properties": { "route": "trusted", "order": 43 }, "geometry": { "type": "LineString", "coordinates": [ [ 198425.43892782938201, 2494394.994189760182053 ], [ 198427.832525069708936, 2494418.323159252293408 ], [ 198429.393489931942895, 2494440.149973818100989 ], [ 198430.224027678777929, 2494460.96031950134784 ], [ 198430.867931980174035, 2494477.507027194369584 ], [ 198431.152531941130292, 2494493.58417830336839 ], [ 198430.693500612280332, 2494575.658372181933373 ] ] } },
{ "type": "Feature", "properties": { "route": "trusted", "order": 44 }, "geometry": { "type": "LineString", "coordinates": [ [ 198409.456370295141824, 2494295.730085262097418 ], [ 198414.171695834491402, 2494319.833703158423305 ], [ 198417.96014959376771, 2494341.30645794281736 ], [ 198425.43892782938201, 2494394.994189760182053 ] ] } },
{ "type": "Feature", "properties": { "route": "trusted", "order": 45 }, "geometry": { "type": "LineString", "coordinates": [ [ 198522.538350204296876, 2494069.528319468256086 ], [ 198488.220435284834821, 2494077.516832808032632 ], [ 198476.692115297366399, 2494080.890803651884198 ], [ 198427.388491413265001, 2494098.672338518314064 ], [ 198414.867908588028513, 2494105.003060111775994 ], [ 198405.510284738789778, 2494111.947847251780331 ], [ 198397.330857725755777, 2494120.687280973419547 ], [ 198391.359881918935571, 2494130.72453529201448 ], [ 198388.244303028448485, 2494140.395411413162947 ], [ 198386.869637156778481, 2494149.577686166856438 ], [ 198386.630461961263791, 2494162.05176434898749 ], [ 198387.908716546487994, 2494174.717743214219809 ], [ 198390.106970742577687, 2494185.991265086457133 ], [ 198396.033268749946728, 2494215.657403097487986 ], [ 198404.136452205071691, 2494245.014810369815677 ], [ 198406.925495172734372, 2494264.356900497339666 ], [ 198409.456370295141824, 2494295.730085262097418 ] ] } },
{ "type": "Feature", "properties": { "route": "trusted", "order": 46 }, "geometry": { "type": "LineString", "coordinates": [ [ 198704.598588593362365, 2494004.276768994517624 ], [ 198675.773557321692351, 2494014.606698776595294 ], [ 198601.579233792261221, 2494041.199576144572347 ], [ 198522.538350204296876, 2494069.528319468256086 ] ] } },
{ "type": "Feature", "properties": { "route": "trusted", "order": 47 }, "geometry": { "type": "LineString", "coordinates": [ [ 198715.6914257457247, 2494000.745260938070714 ], [ 198704.598588593362365, 2494004.276768994517624 ] ] } },
{ "type": "Feature", "properties": { "route": "trusted", "order": 48 }, "geometry": { "type": "LineString", "coordinates": [ [ 198779.24772813526215, 2493960.417957563418895 ], [ 198777.115151950914878, 2493967.719674802385271 ], [ 198774.650944961234927, 2493972.81112004769966 ], [ 198771.14105115638813, 2493977.612710206769407 ], [ 198766.235503842239268, 2493982.131304508540779 ], [ 198761.359277418756392, 2493985.518772540614009 ], [ 198755.836931026366074, 2493987.987860917113721 ], [ 198727.33705688174814, 2493997.047752698417753 ], [ 198715.6914257457247, 2494000.745260938070714 ] ] } },
{ "type": "Feature", "properties": { "route": "trusted", "order": 49 }, "geometry": { "type": "LineString", "coordinates": [ [ 198779.24772813526215, 2493960.417957563418895 ], [ 198796.607539607328363, 2493977.701108939014375 ], [ 198866.514428090362344, 2493952.988833446986973 ], [ 198882.539000339224003, 2493999.360075334552675 ] ] } }
]
}
