{
"type": "FeatureCollection",
"name": "real_routes_wgs84",
"crs": { "type": "name", "properties": { "name": "urn:ogc:def:crs:OGC:1.3:CRS84" } },
"features": [
{ "type": "Feature", "properties": { "route": "shortest", "order": 0 }, "geometry": { "type": "LineString", "coordinates": [ [ 114.0325208, 22.5262355 ], [ 114.0324925, 22.5261912 ], [ 114.0324316, 22.526096 ], [ 114.0323699, 22.5259993 ], [ 114.0322887, 22.5258723 ] ] } },
{ "type": "Feature", "properties": { "route": "shortest", "order": 1 }, "geometry": { "type": "LineString", "coordinates": [ [ 114.0325208, 22.5262355 ], [ 114.0326326, 22.5261716 ] ] } },
{ "type": "Feature", "properties": { "route": "shortest", "order": 2 }, "geometry": { "type": "LineString", "coordinates": [ [ 114.0326326, 22.5261716 ], [ 114.0327578, 22.5261027 ], [ 114.0327912, 22.5260843 ], [ 114.0331477, 22.5258883 ] ] } },
{ "type": "Feature", "properties": { "route": "shortest", "order": 3 }, "geometry": { "type": "LineString", "coordinates": [ [ 114.0331477, 22.5258883 ], [ 114.0346641, 22.5250545 ], [ 114.0346922, 22.525039 ] ] } },
{ "type": "Feature", "properties": { "route": "shortest", "order": 4 }, "geometry": { "type": "LineString", "coordinates": [ [ 114.0346922, 22.525039 ], [ 114.0366455, 22.5239648 ] ] } },
{ "type": "Feature", "properties": { "route": "shortest", "order": 5 }, "geometry": { "type": "LineString", "coordinates": [ [ 114.0366455, 22.5239648 ], [ 114.0370888, 22.5237211 ] ] } },
{ "type": "Feature", "properties": { "route": "shortest", "order": 6 }, "geometry": { "type": "LineString", "coordinates": [ [ 114.0370888, 22.5237211 ], [ 114.0372353, 22.5236405 ], [ 114.0372872, 22.523612 ], [ 114.0374422, 22.5235267 ] ] } },
{ "type": "Feature", "properties": { "route": "shortest", "order": 7 }, "geometry": { "type": "LineString", "coordinates": [ [ 114.0374422, 22.5235267 ], [ 114.0375986, 22.5234408 ], [ 114.0376557, 22.5234094 ] ] } },
{ "type": "Feature", "properties": { "route": "shortest", "order": 8 }, "geometry": { "type": "LineString", "coordinates": [ [ 114.0376557, 22.5234094 ], [ 114.0403167, 22.521946 ], [ 114.041169, 22.5214905 ] ] } },
{ "type": "Feature", "properties": { "route": "shortest", "order": 9 }, "geometry": { "type": "LineString", "coordinates": [ [ 114.041169, 22.5214905 ], [ 114.0415548, 22.5212664 ] ] } },
{ "type": "Feature", "properties": { "route": "shortest", "order": 10 }, "geometry": { "type": "LineString", "coordinates": [ [ 114.0415548, 22.5212664 ], [ 114.0415951, 22.521243 ], [ 114.0416417, 22.5212175 ], [ 114.0417641, 22.52115 ] ] } },
{ "type": "Feature", "properties": { "route": "shortest", "order": 11 }, "geometry": { "type": "LineString", "coordinates": [ [ 114.0417641, 22.52115 ], [ 114.0418752, 22.5210889 ] ] } },
{ "type": "Feature", "properties": { "route": "shortest", "order": 12 }, "geometry": { "type": "LineString", "coordinates": [ [ 114.0418752, 22.5210889 ], [ 114.0419863, 22.5210277 ], [ 114.0420558, 22.5209894 ], [ 114.042351, 22.5208323 ] ] } },
{ "type": "Feature", "properties": { "route": "shortest", "order": 13 }, "geometry": { "type": "LineString", "coordinates": [ [ 114.042351, 22.5208323 ], [ 114.04243790000001, 22.5207791 ], [ 114.0433033, 22.5203027 ] ] } },
{ "type": "Feature", "properties": { "route": "shortest", "order": 14 }, "geometry": { "type": "LineString", "coordinates": [ [ 114.0433033, 22.5203027 ], [ 114.043972600000018, 22.5199343 ], [ 114.0444964, 22.5196771 ], [ 114.044954300000015, 22.5194688 ], [ 114.0454101, 22.5192739 ], [ 114.0458255, 22.5191131 ], [ 114.046247900000012, 22.5189653 ], [ 114.0466723, 22.518826 ], [ 114.0471091, 22.5186998 ], [ 114.0475135, 22.518593 ], [ 114.0479392, 22.5184944 ], [ 114.0485047, 22.5183764 ], [ 114.0489432, 22.5183022 ], [ 114.0493634, 22.5182415 ], [ 114.0497693, 22.5181956 ], [ 114.0502105, 22.5181674 ], [ 114.050342400000019, 22.5181629 ] ] } },
{ "type": "Feature", "properties": { "route": "shortest", "order": 15 }, "geometry": { "type": "LineString", "coordinates": [ [ 114.050342400000019, 22.5181629 ], [ 114.0506585, 22.5181521 ], [ 114.050835500000019, 22.5181437 ] ] } },
{ "type": "Feature", "properties": { "route": "shortest", "order": 16 }, "geometry": { "type": "LineString", "coordinates": [ [ 114.050835500000019, 22.5181437 ], [ 114.0509652, 22.5181363 ] ] } },
{ "type": "Feature", "properties": { "route": "shortest", "order": 17 }, "geometry": { "type": "LineString", "coordinates": [ [ 114.0509652, 22.5181363 ], [ 114.0511318, 22.5181277 ], [ 114.0514049, 22.5181294 ] ] } },
{ "type": "Feature", "properties": { "route": "shortest", "order": 18 }, "geometry": { "type": "LineString", "coordinates": [ [ 114.0514049, 22.5181294 ], [ 114.0518653, 22.5181324 ], [ 114.0524129, 22.5181432 ], [ 114.0530238, 22.5181799 ] ] } },
{ "type": "Feature", "properties": { "route": "shortest", "order": 19 }, "geometry": { "type": "LineString", "coordinates": [ [ 114.0530238, 22.5181799 ], [ 114.0535217, 22.5182309 ], [ 114.054243, 22.5183212 ], [ 114.0546962, 22.5183998 ], [ 114.0551493, 22.5184954 ] ] } },
{ "type": "Feature", "properties": { "route": "shortest", "order": 20 }, "geometry": { "type": "LineString", "coordinates": [ [ 114.0551493, 22.5184954 ], [ 114.0558, 22.5186699 ], [ 114.0562616, 22.5187963 ], [ 114.0568346, 22.5189704 ], [ 114.0575045, 22.5192154 ], [ 114.0581053, 22.5194691 ], [ 114.058361, 22.5195872 ] ] } },
{ "type": "Feature", "properties": { "route": "shortest", "order": 21 }, "geometry": { "type": "LineString", "coordinates": [ [ 114.058361, 22.5195872 ], [ 114.0585549, 22.5196793 ], [ 114.0589254, 22.519861 ], [ 114.0590416, 22.5199146 ] ] } },
{ "type": "Feature", "properties": { "route": "shortest", "order": 22 }, "geometry": { "type": "LineString", "coordinates": [ [ 114.0590416, 22.5199146 ], [ 114.0595381, 22.5201703 ], [ 114.0600726, 22.5204617 ], [ 114.0604114, 22.5206845 ], [ 114.0606803, 22.5208614 ] ] } },
{ "type": "Feature", "properties": { "route": "shortest", "order": 23 }, "geometry": { "type": "LineString", "coordinates": [ [ 114.0606803, 22.5208614 ], [ 114.0607793, 22.5208911 ], [ 114.0608775, 22.5209091 ], [ 114.0609642, 22.5209155 ], [ 114.0610432, 22.5209035 ], [ 114.0611277, 22.5208721 ], [ 114.061201, 22.5208247 ] ] } },
{ "type": "Feature", "properties": { "route": "shortest", "order": 24 }, "geometry": { "type": "LineString", "coordinates": [ [ 114.0613566, 22.5208704 ], [ 114.0613252, 22.5208815 ], [ 114.061296, 22.5208866 ], [ 114.0612727, 22.5208834 ], [ 114.0612498, 22.5208735 ], [ 114.061201, 22.5208247 ] ] } },
{ "type": "Feature", "properties": { "route": "shortest", "order": 25 }, "geometry": { "type": "LineString", "coordinates": [ [ 114.0621333, 22.5201979 ], [ 114.0613566, 22.5208704 ] ] } },
{ "type": "Feature", "properties": { "route": "shortest", "order": 26 }, "geometry": { "type": "LineString", "coordinates": [ [ 114.0621333, 22.5201979 ], [ 114.0622068, 22.5202637 ], [ 114.0622612, 22.5203144 ], [ 114.0624217, 22.5204982 ], [ 114.062712, 22.5208254 ], [ 114.0630013, 22.5211564 ], [ 114.0635411, 22.5217847 ] ] } },
{ "type": "Feature", "properties": { "route": "shortest", "order": 27 }, "geometry": { "type": "LineString", "coordinates": [ [ 114.0662527, 22.5261226 ], [ 114.0660631, 22.5257128 ], [ 114.065913, 22.5254191 ], [ 114.0657738, 22.5251434 ], [ 114.0655851, 22.5248026 ], [ 114.0653894, 22.524431599999989 ], [ 114.0651051, 22.5239432 ], [ 114.0647621, 22.5234298 ], [ 114.0643773, 22.5228631 ], [ 114.0643041, 22.5227553 ], [ 114.06390420000001, 22.5222344 ], [ 114.0635411, 22.5217847 ] ] } },
{ "type": "Feature", "properties": { "route": "shortest", "order": 28 }, "geometry": { "type": "LineString", "coordinates": [ [ 114.0664082, 22.5260637 ], [ 114.0662527, 22.5261226 ] ] } },
{ "type": "Feature", "properties": { "route": "shortest", "order": 29 }, "geometry": { "type": "LineString", "coordinates": [ [ 114.0664082, 22.5260637 ], [ 114.0664196, 22.5256934 ], [ 114.066326, 22.5254854 ], [ 114.0668468, 22.5252914 ] ] } },
{ "type": "Feature", "properties": { "route": "shortest", "order": 30 }, "geometry": { "type": "LineString", "coordinates": [ [ 114.0668468, 22.5252914 ], [ 114.066872, 22.5253424 ], [ 114.0668973, 22.5253934 ] ] } },
{ "type": "Feature", "properties": { "route": "shortest", "order": 31 }, "geometry": { "type": "LineString", "coordinates": [ [ 114.0668973, 22.5253934 ], [ 114.0669533, 22.5255066 ] ] } },
{ "type": "Feature", "properties": { "route": "shortest", "order": 32 }, "geometry": { "type": "LineString", "coordinates": [ [ 114.0669533, 22.5255066 ], [ 114.067037, 22.5255485 ], [ 114.0671001, 22.5255922 ], [ 114.067148, 22.5256443 ], [ 114.0677059, 22.5267619 ], [ 114.067738300000016, 22.5267975 ], [ 114.0677753, 22.5268174 ], [ 114.0678323, 22.5268274 ], [ 114.0678867, 22.5268237 ], [ 114.0681495, 22.5267333 ], [ 114.0688263, 22.5265146 ], [ 114.0690299, 22.5264583 ] ] } },
{ "type": "Feature", "properties": { "route": "shortest", "order": 33 }, "geometry": { "type": "LineString", "coordinates": [ [ 114.0690299, 22.5264583 ], [ 114.0691777, 22.5264204 ] ] } },
{ "type": "Feature", "properties": { "route": "shortest", "order": 34 }, "geometry": { "type": "LineString", "coordinates": [ [ 114.0691777, 22.5264204 ], [ 114.0692404, 22.5264053 ], [ 114.0693016, 22.5263906 ], [ 114.06943, 22.5263625 ], [ 114.0695384, 22.5263344 ], [ 114.0699069, 22.5262176 ], [ 114.069970200000014, 22.5261975 ] ] } },
{ "type": "Feature", "properties": { "route": "shortest", "order": 35 }, "geometry": { "type": "LineString", "coordinates": [ [ 114.069970200000014, 22.5261975 ], [ 114.0702593, 22.5261059 ], [ 114.0703868, 22.5260767 ], [ 114.0706669, 22.5260321 ], [ 114.0707344, 22.5260149 ], [ 114.0708831, 22.5259804 ], [ 114.071012200000013, 22.5259467 ] ] } },
{ "type": "Feature", "properties": { "route": "shortest", "order": 36 }, "geometry": { "type": "LineString", "coordinates": [ [ 114.0710401, 22.5260229 ], [ 114.071012200000013, 22.5259467 ] ] } },
{ "type": "Feature", "properties": { "route": "shortest", "order": 37 }, "geometry": { "type": "LineString", "coordinates": [ [ 114.0711485, 22.525993 ], [ 114.0710401, 22.5260229 ] ] } },
{ "type": "Feature", "properties": { "route": "shortest", "order": 38 }, "geometry": { "type": "LineString", "coordinates": [ [ 114.0717734, 22.5256404 ], [ 114.0717513, 22.5257059 ], [ 114.0717264, 22.5257514 ], [ 114.0716914, 22.5257941 ], [ 114.0716429, 22.525834 ], [ 114.0715949, 22.5258637 ], [ 114.0715408, 22.525885 ], [ 114.0712623, 22.5259617 ], [ 114.0711485, 22.525993 ] ] } },
{ "type": "Feature", "properties": { "route": "shortest", "order": 39 }, "geometry": { "type": "LineString", "coordinates": [ [ 114.0717734, 22.5256404 ], [ 114.0719387, 22.5257994 ], [ 114.0726223, 22.5255888 ], [ 114.0727691, 22.52601 ] ] } },
{ "type": "Feature", "properties": { "route": "risk", "order": 0 }, "geometry": { "type": "LineString", "coordinates": [ [ 114.0325208, 22.5262355 ], [ 114.0324925, 22.5261912 ], [ 114.0324316, 22.526096 ], [ 114.0323699, 22.5259993 ], [ 114.0322887, 22.5258723 ] ] } },
{ "type": "Feature", "properties": { "route": "risk", "order": 1 }, "geometry": { "type": "LineString", "coordinates": [ [ 114.0326051, 22.5263675 ], [ 114.0325208, 22.5262355 ] ] } },
{ "type": "Feature", "properties": { "route": "risk", "order": 2 }, "geometry": { "type": "LineString", "coordinates": [ [ 114.03271860000001, 22.5263019 ], [ 114.0326051, 22.5263675 ] ] } },
{ "type": "Feature", "properties": { "route": "risk", "order": 3 }, "geometry": { "type": "LineString", "coordinates": [ [ 114.03271860000001, 22.5263019 ], [ 114.0327776, 22.5263905 ], [ 114.0328023, 22.5264294 ], [ 114.0329494, 22.5266687 ] ] } },
{ "type": "Feature", "properties": { "route": "risk", "order": 4 }, "geometry": { "type": "LineString", "coordinates": [ [ 114.0329494, 22.5266687 ], [ 114.0334536, 22.5274608 ], [ 114.0335042, 22.5275449 ], [ 114.0335548, 22.5276312 ], [ 114.0335954, 22.5277033 ], [ 114.0336304, 22.5277686 ], [ 114.0336571, 22.5278206 ], [ 114.033682700000014, 22.5278727 ], [ 114.0337105, 22.527935 ], [ 114.0337498, 22.5280351 ] ] } },
{ "type": "Feature", "properties": { "route": "risk", "order": 5 }, "geometry": { "type": "LineString", "coordinates": [ [ 114.0337498, 22.5280351 ], [ 114.0337635, 22.5280619 ], [ 114.0337774, 22.5280832 ], [ 114.0337943, 22.5281064 ], [ 114.0338159, 22.5281295 ], [ 114.0338407, 22.5281506 ], [ 114.033871, 22.5281699 ], [ 114.0339033, 22.5281865 ], [ 114.0339369, 22.528201 ], [ 114.0339677, 22.5282117 ], [ 114.0339969, 22.5282199 ], [ 114.034025, 22.5282255 ], [ 114.0340517, 22.5282283 ], [ 114.0340822, 22.5282289 ], [ 114.0341086, 22.5282277 ], [ 114.0341317, 22.5282252 ], [ 114.034153, 22.528221399999989 ], [ 114.034169, 22.5282176 ], [ 114.0341831, 22.5282127 ] ] } },
{ "type": "Feature", "properties": { "route": "risk", "order": 6 }, "geometry": { "type": "LineString", "coordinates": [ [ 114.0352104, 22.5277304 ], [ 114.0347606, 22.5279397 ], [ 114.0341831, 22.5282127 ] ] } },
{ "type": "Feature", "properties": { "route": "risk", "order": 7 }, "geometry": { "type": "LineString", "coordinates": [ [ 114.0352104, 22.5277304 ], [ 114.0352184, 22.5278077 ], [ 114.0352171, 22.5278854 ], [ 114.0350644, 22.5291636 ], [ 114.0372229, 22.5293775 ] ] } },
{ "type": "Feature", "properties": { "route": "risk", "order": 8 }, "geometry": { "type": "LineString", "coordinates": [ [ 114.0383133, 22.5295001 ], [ 114.0372229, 22.5293775 ] ] } },
{ "type": "Feature", "properties": { "route": "risk", "order": 9 }, "geometry": { "type": "LineString", "coordinates": [ [ 114.040353, 22.5297251 ], [ 114.0383133, 22.5295001 ] ] } },
{ "type": "Feature", "properties": { "route": "risk", "order": 10 }, "geometry": { "type": "LineString", "coordinates": [ [ 114.040353, 22.5297251 ], [ 114.04052470000002, 22.5297579 ] ] } },
{ "type": "Feature", "properties": { "route": "risk", "order": 11 }, "geometry": { "type": "LineString", "coordinates": [ [ 114.0407863, 22.5305043 ], [ 114.0401844, 22.5304056 ], [ 114.0403675, 22.5298236 ], [ 114.0404909, 22.5298275 ], [ 114.04052470000002, 22.5297579 ] ] } },
{ "type": "Feature", "properties": { "route": "risk", "order": 12 }, "geometry": { "type": "LineString", "coordinates": [ [ 114.0407586, 22.5307193 ], [ 114.0407863, 22.5305043 ] ] } },
{ "type": "Feature", "properties": { "route": "risk", "order": 13 }, "geometry": { "type": "LineString", "coordinates": [ [ 114.0407586, 22.5307193 ], [ 114.0409072, 22.5307415 ], [ 114.041482, 22.530837 ] ] } },
{ "type": "Feature", "properties": { "route": "risk", "order": 14 }, "geometry": { "type": "LineString", "coordinates": [ [ 114.041482, 22.530837 ], [ 114.0417278, 22.5308738 ] ] } },
{ "type": "Feature", "properties": { "route": "risk", "order": 15 }, "geometry": { "type": "LineString", "coordinates": [ [ 114.0417278, 22.5308738 ], [ 114.0420047, 22.5309087 ] ] } },
{ "type": "Feature", "properties": { "route": "risk", "order": 16 }, "geometry": { "type": "LineString", "coordinates": [ [ 114.0420047, 22.5309087 ], [ 114.0425387, 22.530972 ] ] } },
{ "type": "Feature", "properties": { "route": "risk", "order": 17 }, "geometry": { "type": "LineString", "coordinates": [ [ 114.0425387, 22.530972 ], [ 114.0435453, 22.5310938 ] ] } },
{ "type": "Feature", "properties": { "route": "risk", "order": 18 }, "geometry": { "type": "LineString", "coordinates": [ [ 114.0435453, 22.5310938 ], [ 114.0441171, 22.5311432 ], [ 114.0449206, 22.5311801 ], [ 114.0456261, 22.531185 ] ] } },
{ "type": "Feature", "properties": { "route": "risk", "order": 19 }, "geometry": { "type": "LineString", "coordinates": [ [ 114.0456261, 22.531185 ], [ 114.0462148, 22.5311926 ], [ 114.0468308, 22.5311981 ] ] } },
{ "type": "Feature", "properties": { "route": "risk", "order": 20 }, "geometry": { "type": "LineString", "coordinates": [ [ 114.0468308, 22.5311981 ], [ 114.0473224, 22.5312165 ] ] } },
{ "type": "Feature", "properties": { "route": "risk", "order": 21 }, "geometry": { "type": "LineString", "coordinates": [ [ 114.0473224, 22.5312165 ], [ 114.0490164, 22.5312294 ] ] } },
{ "type": "Feature", "properties": { "route": "risk", "order": 22 }, "geometry": { "type": "LineString", "coordinates": [ [ 114.0490164, 22.5312294 ], [ 114.0493467, 22.5312288 ] ] } },
{ "type": "Feature", "properties": { "route": "risk", "order": 23 }, "geometry": { "type": "LineString", "coordinates": [ [ 114.0493467, 22.5312288 ], [ 114.050861600000019, 22.5312292 ] ] } },
{ "type": "Feature", "properties": { "route": "risk", "order": 24 }, "geometry": { "type": "LineString", "coordinates": [ [ 114.050861600000019, 22.5312292 ], [ 114.0510626, 22.5312302 ] ] } },
{ "type": "Feature", "properties": { "route": "risk", "order": 25 }, "geometry": { "type": "LineString", "coordinates": [ [ 114.0510626, 22.5312302 ], [ 114.0519449, 22.5312275 ] ] } },
{ "type": "Feature", "properties": { "route": "risk", "order": 26 }, "geometry": { "type": "LineString", "coordinates": [ [ 114.0519449, 22.5312275 ], [ 114.0525728, 22.5312383 ] ] } },
{ "type": "Feature", "properties": { "route": "risk", "order": 27 }, "geometry": { "type": "LineString", "coordinates": [ [ 114.0525728, 22.5312383 ], [ 114.0526775, 22.5312395 ], [ 114.0527612, 22.5312409 ] ] } },
{ "type": "Feature", "properties": { "route": "risk", "order": 28 }, "geometry": { "type": "LineString", "coordinates": [ [ 114.0527612, 22.5312409 ], [ 114.0528656, 22.5312426 ], [ 114.0535312, 22.5312965 ], [ 114.0537186, 22.5312979 ] ] } },
{ "type": "Feature", "properties": { "route": "risk", "order": 29 }, "geometry": { "type": "LineString", "coordinates": [ [ 114.0537186, 22.5312979 ], [ 114.0540394, 22.5313003 ] ] } },
{ "type": "Feature", "properties": { "route": "risk", "order": 30 }, "geometry": { "type": "LineString", "coordinates": [ [ 114.0540394, 22.5313003 ], [ 114.0577041, 22.5313401 ] ] } },
{ "type": "Feature", "properties": { "route": "risk", "order": 31 }, "geometry": { "type": "LineString", "coordinates": [ [ 114.0577041, 22.5313401 ], [ 114.0587453, 22.5313659 ] ] } },
{ "type": "Feature", "properties": { "route": "risk", "order": 32 }, "geometry": { "type": "LineString", "coordinates": [ [ 114.0587453, 22.5313659 ], [ 114.0589896, 22.531372 ] ] } },
{ "type": "Feature", "properties": { "route": "risk", "order": 33 }, "geometry": { "type": "LineString", "coordinates": [ [ 114.0589896, 22.531372 ], [ 114.0608812, 22.5313913 ] ] } },
{ "type": "Feature", "properties": { "route": "risk", "order": 34 }, "geometry": { "type": "LineString", "coordinates": [ [ 114.0608812, 22.5313913 ], [ 114.0621666, 22.5314159 ] ] } },
{ "type": "Feature", "properties": { "route": "risk", "order": 35 }, "geometry": { "type": "LineString", "coordinates": [ [ 114.0621666, 22.5314159 ], [ 114.0624055, 22.5314204 ] ] } },
{ "type": "Feature", "properties": { "route": "risk", "order": 36 }, "geometry": { "type": "LineString", "coordinates": [ [ 114.0624055, 22.5314204 ], [ 114.0636879, 22.531444 ] ] } },
{ "type": "Feature", "properties": { "route": "risk", "order": 37 }, "geometry": { "type": "LineString", "coordinates": [ [ 114.0636879, 22.531444 ], [ 114.0641555, 22.5314515 ] ] } },
{ "type": "Feature", "properties": { "route": "risk", "order": 38 }, "geometry": { "type": "LineString", "coordinates": [ [ 114.0641555, 22.5314515 ], [ 114.0644172, 22.5314531 ] ] } },
{ "type": "Feature", "properties": { "route": "risk", "order": 39 }, "geometry": { "type": "LineString", "coordinates": [ [ 114.0644172, 22.5314531 ], [ 114.0659996, 22.5314631 ] ] } },
{ "type": "Feature", "properties": { "route": "risk", "order": 40 }, "geometry": { "type": "LineString", "coordinates": [ [ 114.0659996, 22.5314631 ], [ 114.06749240000002, 22.5314839 ] ] } },
{ "type": "Feature", "properties": { "route": "risk", "order": 41 }, "geometry": { "type": "LineString", "coordinates": [ [ 114.06749240000002, 22.5314839 ], [ 114.0690732, 22.5315027 ] ] } },
{ "type": "Feature", "properties": { "route": "risk", "order": 42 }, "geometry": { "type": "LineString", "coordinates": [ [ 114.0690732, 22.5315027 ], [ 114.0691716, 22.5314713 ], [ 114.069238, 22.5314378 ], [ 114.0693091, 22.531391 ], [ 114.0693771, 22.5313143 ], [ 114.0694159, 22.5312271 ], [ 114.069426100000015, 22.5311315 ], [ 114.0694168, 22.531034 ], [ 114.0693924, 22.5309392 ], [ 114.069347, 22.5308481 ], [ 114.0692754, 22.5307677 ], [ 114.0691848, 22.5307057 ], [ 114.0690627, 22.5306547 ], [ 114.0689288, 22.5306325 ], [ 114.0687935, 22.5306364 ], [ 114.0686655, 22.5306671 ], [ 114.0685639, 22.5307231 ], [ 114.0684735, 22.5308062 ], [ 114.0683976, 22.5309089 ], [ 114.0683278, 22.5310216 ], [ 114.0682712, 22.5311295 ] ] } },
{ "type": "Feature", "properties": { "route": "risk", "order": 43 }, "geometry": { "type": "LineString", "coordinates": [ [ 114.0682546, 22.5294986 ], [ 114.0682734, 22.5297095 ], [ 114.06828440000001, 22.5299067 ], [ 114.0682885, 22.5300946 ], [ 114.0682916, 22.530244 ], [ 114.0682913, 22.5303891 ], [ 114.0682712, 22.5311295 ] ] } },
{ "type": "Feature", "properties": { "route": "risk", "order": 44 }, "geometry": { "type": "LineString", "coordinates": [ [ 114.0681183, 22.5286002 ], [ 114.0681595, 22.5288185 ], [ 114.0681922, 22.5290129 ], [ 114.0682546, 22.5294986 ] ] } },
{ "type": "Feature", "properties": { "route": "risk", "order": 45 }, "geometry": { "type": "LineString", "coordinates": [ [ 114.0692596, 22.5265794 ], [ 114.0689248, 22.5266454 ], [ 114.0688122, 22.5266738 ], [ 114.06833, 22.5268255 ], [ 114.0682072, 22.5268804 ], [ 114.068115, 22.5269414 ], [ 114.0680339, 22.5270188 ], [ 114.067974, 22.5271083 ], [ 114.0679419, 22.527195 ], [ 114.0679268, 22.5272776 ], [ 114.0679221, 22.5273901 ], [ 114.0679321, 22.5275046 ], [ 114.067951300000018, 22.5276067 ], [ 114.0680032, 22.5278754 ], [ 114.0680763, 22.5281417 ], [ 114.0680997, 22.5283167 ], [ 114.0681183, 22.5286002 ] ] } },
{ "type": "Feature", "properties": { "route": "risk", "order": 46 }, "geometry": { "type": "LineString", "coordinates": [ [ 114.0710401, 22.5260229 ], [ 114.0707582, 22.526111 ], [ 114.0700326, 22.5263378 ], [ 114.0692596, 22.5265794 ] ] } },
{ "type": "Feature", "properties": { "route": "risk", "order": 47 }, "geometry": { "type": "LineString", "coordinates": [ [ 114.0711485, 22.525993 ], [ 114.0710401, 22.5260229 ] ] } },
{ "type": "Feature", "properties": { "route": "risk", "order": 48 }, "geometry": { "type": "LineString", "coordinates": [ [ 114.0717734, 22.5256404 ], [ 114.0717513, 22.5257059 ], [ 114.0717264, 22.5257514 ], [ 114.0716914, 22.5257941 ], [ 114.0716429, 22.525834 ], [ 114.0715949, 22.5258637 ], [ 114.0715408, 22.525885 ], [ 114.0712623, 22.5259617 ], [ 114.0711485, 22.525993 ] ] } },
{ "type": "Feature", "properties": { "route": "risk", "order": 49 }, "geometry": { "type": "LineString", "coordinates": [ [ 114.0717734, 22.5256404 ], [ 114.0719387, 22.5257994 ], [ 114.0726223, 22.5255888 ], [ 114.0727691, 22.52601 ] ] } },
{ "type": "Feature", "properties": { "route": "trusted", "order": 0 }, "geometry": { "type": "LineString", "coordinates": [ [ 114.0325208, 22.5262355 ], [ 114.0324925, 22.5261912 ], [ 114.0324316, 22.526096 ], [ 114.0323699, 22.5259993 ], [ 114.0322887, 22.5258723 ] ] } },
{ "type": "Feature", "properties": { "route": "trusted", "order": 1 }, "geometry": { "type": "LineString", "coordinates": [ [ 114.0325208, 22.5262355 ], [ 114.0326326, 22.5261716 ] ] } },
{ "type": "Feature", "properties": { "route": "trusted", "order": 2 }, "geometry": { "type": "LineString", "coordinates": [ [ 114.0326326, 22.5261716 ], [ 114.03271860000001, 22.5263019 ] ] } },
{ "type": "Feature", "properties": { "route": "trusted", "order": 3 }, "geometry": { "type": "LineString", "coordinates": [ [ 114.03271860000001, 22.5263019 ], [ 114.0327776, 22.5263905 ], [ 114.0328023, 22.5264294 ], [ 114.0329494, 22.5266687 ] ] } },
{ "type": "Feature", "properties": { "route": "trusted", "order": 4 }, "geometry": { "type": "LineString", "coordinates": [ [ 114.0329494, 22.5266687 ], [ 114.0334536, 22.5274608 ], [ 114.0335042, 22.5275449 ], [ 114.0335548, 22.5276312 ], [ 114.0335954, 22.5277033 ], [ 114.0336304, 22.5277686 ], [ 114.0336571, 22.5278206 ], [ 114.033682700000014, 22.5278727 ], [ 114.0337105, 22.527935 ], [ 114.0337498, 22.5280351 ] ] } },
{ "type": "Feature", "properties": { "route": "trusted", "order": 5 }, "geometry": { "type": "LineString", "coordinates": [ [ 114.0337498, 22.5280351 ], [ 114.0337635, 22.5280619 ], [ 114.0337774, 22.5280832 ], [ 114.0337943, 22.5281064 ], [ 114.0338159, 22.5281295 ], [ 114.0338407, 22.5281506 ], [ 114.033871, 22.5281699 ], [ 114.0339033, 22.5281865 ], [ 114.0339369, 22.528201 ], [ 114.0339677, 22.5282117 ], [ 114.0339969, 22.5282199 ], [ 114.034025, 22.5282255 ], [ 114.0340517, 22.5282283 ], [ 114.0340822, 22.5282289 ], [ 114.0341086, 22.5282277 ], [ 114.0341317, 22.5282252 ], [ 114.034153, 22.528221399999989 ], [ 114.034169, 22.5282176 ], [ 114.0341831, 22.5282127 ] ] } },
{ "type": "Feature", "properties": { "route": "trusted", "order": 6 }, "geometry": { "type": "LineString", "coordinates": [ [ 114.0352104, 22.5277304 ], [ 114.0347606, 22.5279397 ], [ 114.0341831, 22.5282127 ] ] } },
{ "type": "Feature", "properties": { "route": "trusted", "order": 7 }, "geometry": { "type": "LineString", "coordinates": [ [ 114.0352104, 22.5277304 ], [ 114.0352184, 22.5278077 ], [ 114.0352171, 22.5278854 ], [ 114.0350644, 22.5291636 ], [ 114.0372229, 22.5293775 ] ] } },
{ "type": "Feature", "properties": { "route": "trusted", "order": 8 }, "geometry": { "type": "LineString", "coordinates": [ [ 114.0383133, 22.5295001 ], [ 114.0372229, 22.5293775 ] ] } },
{ "type": "Feature", "properties": { "route": "trusted", "order": 9 }, "geometry": { "type": "LineString", "coordinates": [ [ 114.040353, 22.5297251 ], [ 114.0383133, 22.5295001 ] ] } },
{ "type": "Feature", "properties": { "route": "trusted", "order": 10 }, "geometry": { "type": "LineString", "coordinates": [ [ 114.040353, 22.5297251 ], [ 114.04052470000002, 22.5297579 ] ] } },
{ "type": "Feature", "properties": { "route": "trusted", "order": 11 }, "geometry": { "type": "LineString", "coordinates": [ [ 114.0407863, 22.5305043 ], [ 114.0401844, 22.5304056 ], [ 114.0403675, 22.5298236 ], [ 114.0404909, 22.5298275 ], [ 114.04052470000002, 22.5297579 ] ] } },
{ "type": "Feature", "properties": { "route": "trusted", "order": 12 }, "geometry": { "type": "LineString", "coordinates": [ [ 114.0407586, 22.5307193 ], [ 114.0407863, 22.5305043 ] ] } },
{ "type": "Feature", "properties": { "route": "trusted", "order": 13 }, "geometry": { "type": "LineString", "coordinates": [ [ 114.0407586, 22.5307193 ], [ 114.0409072, 22.5307415 ], [ 114.041482, 22.530837 ] ] } },
{ "type": "Feature", "properties": { "route": "trusted", "order": 14 }, "geometry": { "type": "LineString", "coordinates": [ [ 114.041482, 22.530837 ], [ 114.0417278, 22.5308738 ] ] } },
{ "type": "Feature", "properties": { "route": "trusted", "order": 15 }, "geometry": { "type": "LineString", "coordinates": [ [ 114.0417278, 22.5308738 ], [ 114.0420047, 22.5309087 ] ] } },
{ "type": "Feature", "properties": { "route": "trusted", "order": 16 }, "geometry": { "type": "LineString", "coordinates": [ [ 114.0420047, 22.5309087 ], [ 114.0425387, 22.530972 ] ] } },
{ "type": "Feature", "properties": { "route": "trusted", "order": 17 }, "geometry": { "type": "LineString", "coordinates": [ [ 114.0425387, 22.530972 ], [ 114.0435453, 22.5310938 ] ] } },
{ "type": "Feature", "properties": { "route": "trusted", "order": 18 }, "geometry": { "type": "LineString", "coordinates": [ [ 114.0435453, 22.5310938 ], [ 114.0441171, 22.5311432 ], [ 114.0449206, 22.5311801 ], [ 114.0456261, 22.531185 ] ] } },
{ "type": "Feature", "properties": { "route": "trusted", "order": 19 }, "geometry": { "type": "LineString", "coordinates": [ [ 114.0456261, 22.531185 ], [ 114.0462148, 22.5311926 ], [ 114.0468308, 22.5311981 ] ] } },
{ "type": "Feature", "properties": { "route": "trusted", "order": 20 }, "geometry": { "type": "LineString", "coordinates": [ [ 114.0468308, 22.5311981 ], [ 114.0473224, 22.5312165 ] ] } },
{ "type": "Feature", "properties": { "route": "trusted", "order": 21 }, "geometry": { "type": "LineString", "coordinates": [ [ 114.0473224, 22.5312165 ], [ 114.0490164, 22.5312294 ] ] } },
{ "type": "Feature", "properties": { "route": "trusted", "order": 22 }, "geometry": { "type": "LineString", "coordinates": [ [ 114.0490164, 22.5312294 ], [ 114.0493467, 22.5312288 ] ] } },
{ "type": "Feature", "properties": { "route": "trusted", "order": 23 }, "geometry": { "type": "LineString", "coordinates": [ [ 114.0493467, 22.5312288 ], [ 114.050861600000019, 22.5312292 ] ] } },
{ "type": "Feature", "properties": { "route": "trusted", "order": 24 }, "geometry": { "type": "LineString", "coordinates": [ [ 114.050861600000019, 22.5312292 ], [ 114.0510626, 22.5312302 ] ] } },
{ "type": "Feature", "properties": { "route": "trusted", "order": 25 }, "geometry": { "type": "LineString", "coordinates": [ [ 114.0510626, 22.5312302 ], [ 114.0519449, 22.5312275 ] ] } },
{ "type": "Feature", "properties": { "route": "trusted", "order": 26 }, "geometry": { "type": "LineString", "coordinates": [ [ 114.0519449, 22.5312275 ], [ 114.0525728, 22.5312383 ] ] } },
{ "type": "Feature", "properties": { "route": "trusted", "order": 27 }, "geometry": { "type": "LineString", "coordinates": [ [ 114.0525728, 22.5312383 ], [ 114.0526775, 22.5312395 ], [ 114.0527612, 22.5312409 ] ] } },
{ "type": "Feature", "properties": { "route": "trusted", "order": 28 }, "geometry": { "type": "LineString", "coordinates": [ [ 114.0527612, 22.5312409 ], [ 114.0528656, 22.5312426 ], [ 114.0535312, 22.5312965 ], [ 114.0537186, 22.5312979 ] ] } },
{ "type": "Feature", "properties": { "route": "trusted", "order": 29 }, "geometry": { "type": "LineString", "coordinates": [ [ 114.0537186, 22.5312979 ], [ 114.0540394, 22.5313003 ] ] } },
{ "type": "Feature", "properties": { "route": "trusted", "order": 30 }, "geometry": { "type": "LineString", "coordinates": [ [ 114.0540394, 22.5313003 ], [ 114.0577041, 22.5313401 ] ] } },
{ "type": "Feature", "properties": { "route": "trusted", "order": 31 }, "geometry": { "type": "LineString", "coordinates": [ [ 114.0577041, 22.5313401 ], [ 114.0587453, 22.5313659 ] ] } },
{ "type": "Feature", "properties": { "route": "trusted", "order": 32 }, "geometry": { "type": "LineString", "coordinates": [ [ 114.0587453, 22.5313659 ], [ 114.0589896, 22.531372 ] ] } },
{ "type": "Feature", "properties": { "route": "trusted", "order": 33 }, "geometry": { "type": "LineString", "coordinates": [ [ 114.0589896, 22.531372 ], [ 114.0608812, 22.5313913 ] ] } },
{ "type": "Feature", "properties": { "route": "trusted", "order": 34 }, "geometry": { "type": "LineString", "coordinates": [ [ 114.0608812, 22.5313913 ], [ 114.0621666, 22.5314159 ] ] } },
{ "type": "Feature", "properties": { "route": "trusted", "order": 35 }, "geometry": { "type": "LineString", "coordinates": [ [ 114.0621666, 22.5314159 ], [ 114.0624055, 22.5314204 ] ] } },
{ "type": "Feature", "properties": { "route": "trusted", "order": 36 }, "geometry": { "type": "LineString", "coordinates": [ [ 114.0624055, 22.5314204 ], [ 114.0636879, 22.531444 ] ] } },
{ "type": "Feature", "properties": { "route": "trusted", "order": 37 }, "geometry": { "type": "LineString", "coordinates": [ [ 114.0636879, 22.531444 ], [ 114.0641555, 22.5314515 ] ] } },
{ "type": "Feature", "properties": { "route": "trusted", "order": 38 }, "geometry": { "type": "LineString", "coordinates": [ [ 114.0641555, 22.5314515 ], [ 114.0644172, 22.5314531 ] ] } },
{ "type": "Feature", "properties": { "route": "trusted", "order": 39 }, "geometry": { "type": "LineString", "coordinates": [ [ 114.0644172, 22.5314531 ], [ 114.0659996, 22.5314631 ] ] } },
{ "type": "Feature", "properties": { "route": "trusted", "order": 40 }, "geometry": { "type": "LineString", "coordinates": [ [ 114.0659996, 22.5314631 ], [ 114.06749240000002, 22.5314839 ] ] } },
{ "type": "Feature", "properties": { "route": "trusted", "order": 41 }, "geometry": { "type": "LineString", "coordinates": [ [ 114.06749240000002, 22.5314839 ], [ 114.0690732, 22.5315027 ] ] } },
{ "type": "Feature", "properties": { "route": "trusted", "order": 42 }, "geometry": { "type": "LineString", "coordinates": [ [ 114.0690732, 22.5315027 ], [ 114.0691716, 22.5314713 ], [ 114.069238, 22.5314378 ], [ 114.0693091, 22.531391 ], [ 114.0693771, 22.5313143 ], [ 114.0694159, 22.5312271 ], [ 114.069426100000015, 22.5311315 ], [ 114.0694168, 22.531034 ], [ 114.0693924, 22.5309392 ], [ 114.069347, 22.5308481 ], [ 114.0692754, 22.5307677 ], [ 114.0691848, 22.5307057 ], [ 114.0690627, 22.5306547 ], [ 114.0689288, 22.5306325 ], [ 114.0687935, 22.5306364 ], [ 114.0686655, 22.5306671 ], [ 114.0685639, 22.5307231 ], [ 114.0684735, 22.5308062 ], [ 114.0683976, 22.5309089 ], [ 114.0683278, 22.5310216 ], [ 114.0682712, 22.5311295 ] ] } },
{ "type": "Feature", "properties": { "route": "trusted", "order": 43 }, "geometry": { "type": "LineString", "coordinates": [ [ 114.0682546, 22.5294986 ], [ 114.0682734, 22.5297095 ], [ 114.06828440000001, 22.5299067 ], [ 114.0682885, 22.5300946 ], [ 114.0682916, 22.530244 ], [ 114.0682913, 22.5303891 ], [ 114.0682712, 22.5311295 ] ] } },
{ "type": "Feature", "properties": { "route": "trusted", "order": 44 }, "geometry": { "type": "LineString", "coordinates": [ [ 114.0681183, 22.5286002 ], [ 114.0681595, 22.5288185 ], [ 114.0681922, 22.5290129 ], [ 114.0682546, 22.5294986 ] ] } },
{ "type": "Feature", "properties": { "route": "trusted", "order": 45 }, "geometry": { "type": "LineString", "coordinates": [ [ 114.0692596, 22.5265794 ], [ 114.0689248, 22.5266454 ], [ 114.0688122, 22.5266738 ], [ 114.06833, 22.5268255 ], [ 114.0682072, 22.5268804 ], [ 114.068115, 22.5269414 ], [ 114.0680339, 22.5270188 ], [ 114.067974, 22.5271083 ], [ 114.0679419, 22.527195 ], [ 114.0679268, 22.5272776 ], [ 114.0679221, 22.5273901 ], [ 114.0679321, 22.5275046 ], [ 114.067951300000018, 22.5276067 ], [ 114.0680032, 22.5278754 ], [ 114.0680763, 22.5281417 ], [ 114.0680997, 22.5283167 ], [ 114.0681183, 22.5286002 ] ] } },
{ "type": "Feature", "properties": { "route": "trusted", "order": 46 }, "geometry": { "type": "LineString", "coordinates": [ [ 114.0710401, 22.5260229 ], [ 114.0707582, 22.526111 ], [ 114.0700326, 22.5263378 ], [ 114.0692596, 22.5265794 ] ] } },
{ "type": "Feature", "properties": { "route": "trusted", "order": 47 }, "geometry": { "type": "LineString", "coordinates": [ [ 114.0711485, 22.525993 ], [ 114.0710401, 22.5260229 ] ] } },
{ "type": "Feature", "properties": { "route": "trusted", "order": 48 }, "geometry": { "type": "LineString", "coordinates": [ [ 114.0717734, 22.5256404 ], [ 114.0717513, 22.5257059 ], [ 114.0717264, 22.5257514 ], [ 114.0716914, 22.5257941 ], [ 114.0716429, 22.525834 ], [ 114.0715949, 22.5258637 ], [ 114.0715408, 22.525885 ], [ 114.0712623, 22.5259617 ], [ 114.0711485, 22.525993 ] ] } },
{ "type": "Feature", "properties": { "route": "trusted", "order": 49 }, "geometry": { "type": "LineString", "coordinates": [ [ 114.0717734, 22.5256404 ], [ 114.0719387, 22.5257994 ], [ 114.0726223, 22.5255888 ], [ 114.0727691, 22.52601 ] ] } }
]
}
